{"type":"FeatureCollection","features":[{"type":"Feature","properties":{"name":"Colombia","blocKey":"us_ally","blocLabel":"US ally / MNNA","color":"#7d8794","certainty":"member","basis":"US Major Non-NATO Ally"},"geometry":{"type":"Polygon","coordinates":[[[-66.88,1.25],[-67.07,1.13],[-67.26,1.72],[-67.54,2.04],[-67.87,1.69],[-69.82,1.71],[-69.8,1.09],[-69.22,0.99],[-69.25,0.6],[-69.45,0.71],[-70.02,0.54],[-70.02,-0.19],[-69.58,-0.55],[-69.42,-1.12],[-69.44,-1.56],[-69.89,-4.3],[-70.39,-3.77],[-70.69,-3.74],[-70.05,-2.73],[-70.81,-2.26],[-71.41,-2.34],[-71.77,-2.17],[-72.33,-2.43],[-73.07,-2.31],[-73.66,-1.26],[-74.12,-1],[-74.44,-0.53],[-75.11,-0.06],[-75.37,-0.15],[-75.8,0.08],[-76.29,0.42],[-76.58,0.26],[-77.42,0.4],[-77.67,0.83],[-77.86,0.81],[-78.86,1.38],[-78.99,1.69],[-78.62,1.77],[-78.66,2.27],[-78.43,2.63],[-77.93,2.7],[-77.51,3.33],[-77.13,3.85],[-77.5,4.09],[-77.31,4.67],[-77.53,5.58],[-77.32,5.85],[-77.48,6.69],[-77.88,7.22],[-77.75,7.71],[-77.43,7.64],[-77.24,7.94],[-77.47,8.52],[-77.35,8.67],[-76.84,8.64],[-76.09,9.34],[-75.67,9.44],[-75.66,9.77],[-75.48,10.62],[-74.91,11.08],[-74.28,11.1],[-74.2,11.31],[-73.41,11.23],[-72.63,11.73],[-72.24,11.96],[-71.75,12.44],[-71.4,12.38],[-71.14,12.11],[-71.33,11.78],[-71.97,11.61],[-72.23,11.11],[-72.61,10.82],[-72.91,10.45],[-73.03,9.74],[-73.3,9.15],[-72.79,9.09],[-72.66,8.63],[-72.44,8.41],[-72.36,8],[-72.48,7.63],[-72.44,7.42],[-72.2,7.34],[-71.96,6.99],[-70.67,7.09],[-70.09,6.96],[-69.39,6.1],[-68.99,6.21],[-68.27,6.15],[-67.7,6.27],[-67.34,6.1],[-67.52,5.56],[-67.74,5.22],[-67.82,4.5],[-67.62,3.84],[-67.34,3.54],[-67.3,3.32],[-67.81,2.82],[-67.45,2.6],[-67.18,2.25],[-66.88,1.25]]]}},{"type":"Feature","properties":{"name":"Venezuela","blocKey":"alba","blocLabel":"ALBA","color":"#9a6b5a","certainty":"member","basis":"ALBA member"},"geometry":{"type":"Polygon","coordinates":[[[-60.73,5.2],[-60.6,4.92],[-60.97,4.54],[-62.09,4.16],[-62.8,4.01],[-63.09,3.77],[-63.89,4.02],[-64.63,4.15],[-64.82,4.06],[-64.37,3.8],[-64.41,3.13],[-64.27,2.5],[-63.42,2.41],[-63.37,2.2],[-64.08,1.92],[-64.2,1.49],[-64.61,1.33],[-65.35,1.1],[-65.55,0.79],[-66.33,0.72],[-66.88,1.25],[-67.18,2.25],[-67.45,2.6],[-67.81,2.82],[-67.3,3.32],[-67.34,3.54],[-67.62,3.84],[-67.82,4.5],[-67.74,5.22],[-67.52,5.56],[-67.34,6.1],[-67.7,6.27],[-68.27,6.15],[-68.99,6.21],[-69.39,6.1],[-70.09,6.96],[-70.67,7.09],[-71.96,6.99],[-72.2,7.34],[-72.44,7.42],[-72.48,7.63],[-72.36,8],[-72.44,8.41],[-72.66,8.63],[-72.79,9.09],[-73.3,9.15],[-73.03,9.74],[-72.91,10.45],[-72.61,10.82],[-72.23,11.11],[-71.97,11.61],[-71.33,11.78],[-71.36,11.54],[-71.95,11.42],[-71.62,10.97],[-71.63,10.45],[-72.07,9.87],[-71.7,9.07],[-71.26,9.14],[-71.04,9.86],[-71.35,10.21],[-71.4,10.97],[-70.16,11.38],[-70.29,11.85],[-69.94,12.16],[-69.58,11.46],[-68.88,11.44],[-68.23,10.89],[-68.19,10.55],[-67.3,10.55],[-66.23,10.65],[-65.66,10.2],[-64.89,10.08],[-64.33,10.39],[-64.32,10.64],[-63.08,10.7],[-61.88,10.72],[-62.73,10.42],[-62.39,9.95],[-61.59,9.87],[-60.83,9.38],[-60.67,8.58],[-60.15,8.6],[-59.76,8.37],[-60.55,7.78],[-60.64,7.42],[-60.3,7.04],[-60.54,6.86],[-61.16,6.7],[-61.14,6.23],[-61.41,5.96],[-60.73,5.2]]]}},{"type":"Feature","properties":{"name":"Cuba","blocKey":"alba","blocLabel":"ALBA","color":"#9a6b5a","certainty":"member","basis":"ALBA member"},"geometry":{"type":"Polygon","coordinates":[[[-82.27,23.19],[-81.4,23.12],[-80.62,23.11],[-79.68,22.77],[-79.28,22.4],[-78.35,22.51],[-77.99,22.28],[-77.15,21.66],[-76.52,21.21],[-76.19,21.22],[-75.6,21.02],[-75.67,20.74],[-74.93,20.69],[-74.18,20.28],[-74.3,20.05],[-74.96,19.92],[-75.63,19.87],[-76.32,19.95],[-77.76,19.86],[-77.09,20.41],[-77.49,20.67],[-78.14,20.74],[-78.48,21.03],[-78.72,21.6],[-79.28,21.56],[-80.22,21.83],[-80.52,22.04],[-81.82,22.19],[-82.17,22.39],[-81.8,22.64],[-82.78,22.69],[-83.49,22.17],[-83.91,22.15],[-84.05,21.91],[-84.55,21.8],[-84.97,21.9],[-84.45,22.2],[-84.23,22.57],[-83.78,22.79],[-83.27,22.98],[-82.51,23.08],[-82.27,23.19]]]}},{"type":"Feature","properties":{"name":"Nicaragua","blocKey":"alba","blocLabel":"ALBA","color":"#9a6b5a","certainty":"member","basis":"ALBA member"},"geometry":{"type":"Polygon","coordinates":[[[-83.66,10.94],[-83.9,10.73],[-84.19,10.79],[-84.36,11],[-84.67,11.08],[-84.9,10.95],[-85.56,11.22],[-85.71,11.09],[-86.06,11.4],[-86.53,11.81],[-86.75,12.14],[-87.17,12.46],[-87.67,12.91],[-87.56,13.06],[-87.39,12.91],[-87.32,12.98],[-87.01,13.03],[-86.88,13.25],[-86.73,13.26],[-86.76,13.75],[-86.52,13.78],[-86.31,13.77],[-86.1,14.04],[-85.8,13.84],[-85.7,13.96],[-85.51,14.08],[-85.17,14.35],[-85.15,14.56],[-85.05,14.55],[-84.92,14.79],[-84.82,14.82],[-84.65,14.67],[-84.45,14.62],[-84.23,14.75],[-83.98,14.75],[-83.63,14.88],[-83.49,15.02],[-83.15,15],[-83.23,14.9],[-83.28,14.68],[-83.18,14.31],[-83.41,13.97],[-83.52,13.57],[-83.55,13.13],[-83.5,12.87],[-83.47,12.42],[-83.63,12.32],[-83.72,11.89],[-83.65,11.63],[-83.86,11.37],[-83.81,11.1],[-83.66,10.94]]]}},{"type":"Feature","properties":{"name":"Bolivia","blocKey":"alba","blocLabel":"ALBA","color":"#9a6b5a","certainty":"member","basis":"ALBA member"},"geometry":{"type":"Polygon","coordinates":[[[-69.53,-10.95],[-68.79,-11.04],[-68.27,-11.01],[-68.05,-10.71],[-67.17,-10.31],[-66.65,-9.93],[-65.34,-9.76],[-65.44,-10.51],[-65.32,-10.9],[-65.4,-11.57],[-64.32,-12.46],[-63.2,-12.63],[-62.8,-13],[-62.13,-13.2],[-61.71,-13.49],[-61.08,-13.48],[-60.5,-13.78],[-60.46,-14.35],[-60.26,-14.65],[-60.25,-15.08],[-60.54,-15.09],[-60.16,-16.26],[-58.24,-16.3],[-58.39,-16.88],[-58.28,-17.27],[-57.73,-17.55],[-57.5,-18.17],[-57.68,-18.96],[-57.95,-19.4],[-57.85,-19.97],[-58.17,-20.18],[-58.18,-19.87],[-59.12,-19.36],[-60.04,-19.34],[-61.79,-19.63],[-62.27,-20.51],[-62.29,-21.05],[-62.69,-22.25],[-62.85,-22.03],[-63.99,-21.99],[-64.38,-22.8],[-64.96,-22.08],[-66.27,-21.83],[-67.11,-22.74],[-67.83,-22.87],[-68.22,-21.49],[-68.76,-20.37],[-68.44,-19.41],[-68.97,-18.98],[-69.1,-18.26],[-69.59,-17.58],[-68.96,-16.5],[-69.39,-15.66],[-69.16,-15.32],[-69.34,-14.95],[-68.95,-14.45],[-68.93,-13.6],[-68.88,-12.9],[-68.67,-12.56],[-69.53,-10.95]]]}}]}