{"type":"FeatureCollection","features":[{"type":"Feature","properties":{"name":"Saudi Arabia","blocKey":"gcc","blocLabel":"GCC","color":"#7d8a3c","certainty":"member","basis":"Gulf Cooperation Council"},"geometry":{"type":"MultiPolygon","coordinates":[[[[50.808,24.747],[50.881,24.636],[50.929,24.587],[50.979,24.568],[51.095,24.56],[51.147,24.576],[51.215,24.626],[51.269,24.624],[51.295,24.603],[51.306,24.611],[51.29,24.579],[51.302,24.517],[51.334,24.532],[51.388,24.597],[51.395,24.631],[51.498,24.584],[51.444,24.555],[51.395,24.488],[51.336,24.448],[51.306,24.406],[51.3,24.346],[51.279,24.341],[51.279,24.308],[51.345,24.298],[51.413,24.323],[51.479,24.311],[51.526,24.268],[51.569,24.256],[51.573,24.128],[51.594,24.078],[52.558,22.939],[55.105,22.621],[55.187,22.704],[55.627,22.024],[55.638,21.979],[54.978,19.995],[51.979,18.996],[49.129,18.612],[49.036,18.58],[48.162,18.149],[47.589,17.463],[47.458,17.131],[47.428,17.092],[47.161,16.947],[46.97,16.957],[46.747,17.255],[46.71,17.275],[46.323,17.224],[45.43,17.312],[45.222,17.417],[45.165,17.428],[44.646,17.432],[44.562,17.404],[44.404,17.419],[44.212,17.391],[44.149,17.405],[44.085,17.343],[44.004,17.368],[43.939,17.305],[43.915,17.302],[43.894,17.312],[43.887,17.354],[43.731,17.352],[43.577,17.483],[43.487,17.517],[43.413,17.52],[43.303,17.459],[43.165,17.326],[43.222,17.308],[43.252,17.272],[43.249,17.252],[43.156,17.21],[43.118,17.086],[43.136,17.01],[43.113,16.91],[43.146,16.834],[43.212,16.797],[43.209,16.773],[43.169,16.737],[43.18,16.665],[43.085,16.673],[43.036,16.536],[42.971,16.496],[42.907,16.479],[42.898,16.419],[42.789,16.371],[42.781,16.42],[42.795,16.453],[42.725,16.566],[42.737,16.671],[42.719,16.675],[42.704,16.709],[42.706,16.741],[42.636,16.815],[42.597,16.837],[42.576,16.832],[42.542,16.878],[42.556,16.922],[42.544,17.004],[42.513,17.037],[42.448,17.049],[42.411,17.156],[42.357,17.182],[42.384,17.121],[42.364,17.109],[42.374,17.043],[42.363,17.025],[42.302,17.454],[42.274,17.46],[42.261,17.485],[42.141,17.571],[42.094,17.652],[42.053,17.653],[42,17.717],[41.979,17.711],[41.869,17.821],[41.848,17.812],[41.81,17.837],[41.788,17.834],[41.778,17.86],[41.677,17.961],[41.674,18.009],[41.654,18.015],[41.651,18.039],[41.594,18.096],[41.603,18.115],[41.556,18.174],[41.561,18.19],[41.521,18.197],[41.534,18.21],[41.519,18.228],[41.493,18.224],[41.506,18.272],[41.472,18.279],[41.436,18.47],[41.356,18.569],[41.328,18.588],[41.308,18.573],[41.275,18.592],[41.21,18.698],[41.249,18.834],[41.171,18.872],[41.136,18.937],[41.177,19.067],[41.149,19.094],[41.069,19.125],[41.04,19.184],[41.036,19.265],[40.956,19.343],[40.938,19.419],[40.959,19.456],[40.945,19.506],[40.835,19.547],[40.76,19.609],[40.794,19.601],[40.798,19.692],[40.745,19.777],[40.654,19.794],[40.657,19.76],[40.564,19.886],[40.527,19.91],[40.535,19.962],[40.446,20.01],[40.394,20.064],[40.313,20.091],[40.232,20.164],[40.239,20.178],[40.165,20.2],[40.084,20.279],[40.045,20.286],[39.992,20.267],[39.903,20.308],[39.941,20.259],[39.76,20.351],[39.745,20.381],[39.646,20.462],[39.567,20.568],[39.595,20.589],[39.543,20.619],[39.526,20.671],[39.493,20.706],[39.506,20.746],[39.458,20.759],[39.478,20.739],[39.458,20.745],[39.423,20.772],[39.423,20.814],[39.458,20.794],[39.449,20.827],[39.411,20.847],[39.41,20.828],[39.36,20.863],[39.339,20.887],[39.341,20.91],[39.36,20.897],[39.353,20.92],[39.328,20.932],[39.297,20.924],[39.238,21.063],[39.174,21.109],[39.157,21.168],[39.17,21.191],[39.081,21.315],[39.171,21.404],[39.165,21.465],[39.15,21.48],[39.159,21.508],[39.143,21.541],[39.12,21.517],[39.092,21.577],[39.077,21.692],[39.109,21.748],[39.101,21.76],[39.088,21.73],[39.067,21.725],[38.95,21.922],[38.931,22.006],[38.933,22.025],[38.959,22.034],[38.986,22.002],[39.006,22.002],[39.044,22.131],[39.047,22.151],[39.026,22.117],[39.019,22.132],[39.04,22.236],[39.143,22.403],[39.115,22.419],[39.095,22.37],[39.07,22.366],[39.082,22.547],[38.986,22.724],[39.013,22.767],[38.945,22.831],[38.971,22.747],[38.903,22.843],[38.851,22.943],[38.88,22.928],[38.913,22.862],[38.951,22.852],[38.965,22.87],[38.894,22.965],[38.814,22.983],[38.8,22.999],[38.779,23.041],[38.804,23.079],[38.798,23.15],[38.778,23.139],[38.692,23.273],[38.6,23.568],[38.56,23.562],[38.561,23.546],[38.595,23.521],[38.54,23.543],[38.539,23.592],[38.495,23.645],[38.453,23.784],[38.4,23.814],[38.365,23.87],[38.319,23.886],[38.259,23.945],[38.185,23.976],[38.079,24.07],[38.046,24.067],[37.935,24.139],[37.983,24.166],[37.94,24.161],[37.948,24.207],[37.913,24.192],[37.918,24.15],[37.866,24.15],[37.676,24.291],[37.626,24.281],[37.628,24.248],[37.586,24.247],[37.546,24.274],[37.523,24.268],[37.429,24.367],[37.418,24.401],[37.428,24.421],[37.455,24.407],[37.457,24.441],[37.229,24.738],[37.227,24.8],[37.179,24.799],[37.149,24.851],[37.219,24.847],[37.257,24.871],[37.258,24.922],[37.28,24.964],[37.251,25.053],[37.258,25.111],[37.242,25.175],[37.105,25.322],[37.06,25.42],[37.077,25.431],[37.018,25.495],[36.936,25.646],[36.882,25.673],[36.817,25.758],[36.796,25.759],[36.804,25.727],[36.792,25.721],[36.702,25.78],[36.662,25.879],[36.706,25.944],[36.696,26.022],[36.641,26.06],[36.537,26.082],[36.513,26.111],[36.449,26.247],[36.383,26.335],[36.309,26.498],[36.23,26.626],[36.098,26.754],[36.032,26.907],[36.014,26.902],[35.912,27],[35.803,27.142],[35.813,27.191],[35.784,27.236],[35.56,27.456],[35.511,27.544],[35.5,27.619],[35.394,27.777],[35.351,27.801],[35.323,27.876],[35.246,27.962],[35.164,28.009],[35.227,28.033],[35.216,28.054],[35.162,28.058],[35.052,28.12],[35.02,28.113],[35.031,28.099],[34.998,28.114],[34.928,28.079],[34.86,28.085],[34.846,28.071],[34.843,28.1],[34.866,28.113],[34.837,28.116],[34.805,28.071],[34.792,28.079],[34.819,28.113],[34.771,28.093],[34.771,28.106],[34.727,28.112],[34.709,28.14],[34.695,28.126],[34.682,28.135],[34.675,28.113],[34.647,28.099],[34.668,28.071],[34.647,28.071],[34.635,28.033],[34.613,28.03],[34.606,28.096],[34.574,28.094],[34.573,28.113],[34.627,28.161],[34.627,28.177],[34.658,28.171],[34.65,28.201],[34.668,28.209],[34.675,28.27],[34.689,28.264],[34.675,28.277],[34.715,28.327],[34.804,28.527],[34.778,28.665],[34.839,28.829],[34.842,28.89],[34.825,28.9],[34.856,28.964],[34.853,29.045],[34.909,29.231],[34.942,29.25],[34.933,29.289],[34.956,29.305],[34.949,29.352],[36.016,29.19],[36.069,29.2],[36.477,29.495],[36.729,29.854],[37.47,29.995],[37.492,30.011],[37.648,30.331],[37.981,30.499],[37.48,31.007],[36.96,31.491],[38.963,31.994],[39.158,32.121],[40.37,31.938],[42.075,31.08],[42.859,30.495],[44.692,29.202],[46.357,29.063],[46.532,29.096],[47.433,28.995],[47.494,28.904],[47.55,28.771],[47.582,28.631],[47.66,28.56],[47.668,28.534],[48.433,28.54],[48.495,28.5],[48.508,28.416],[48.499,28.393],[48.476,28.401],[48.469,28.387],[48.535,28.408],[48.522,28.319],[48.618,28.217],[48.601,28.148],[48.652,28.046],[48.792,28.007],[48.785,27.989],[48.747,27.982],[48.744,27.961],[48.815,27.907],[48.883,27.827],[48.875,27.77],[48.839,27.729],[48.858,27.804],[48.853,27.818],[48.805,27.756],[48.826,27.811],[48.813,27.829],[48.779,27.72],[48.791,27.715],[48.811,27.743],[48.815,27.688],[48.839,27.708],[48.858,27.663],[48.88,27.688],[48.877,27.644],[48.86,27.64],[48.873,27.612],[48.849,27.623],[48.832,27.612],[48.871,27.606],[48.901,27.633],[48.891,27.588],[48.914,27.572],[48.915,27.609],[48.969,27.62],[49.054,27.568],[49.064,27.556],[49.045,27.544],[49.059,27.538],[49.078,27.547],[49.072,27.558],[49.24,27.545],[49.305,27.482],[49.313,27.449],[49.293,27.453],[49.285,27.475],[49.264,27.453],[49.209,27.458],[49.182,27.441],[49.158,27.458],[49.12,27.441],[49.207,27.395],[49.24,27.427],[49.264,27.414],[49.23,27.38],[49.223,27.331],[49.279,27.359],[49.313,27.345],[49.323,27.206],[49.34,27.208],[49.345,27.183],[49.367,27.194],[49.371,27.219],[49.412,27.204],[49.397,27.163],[49.367,27.161],[49.375,27.149],[49.407,27.133],[49.435,27.167],[49.432,27.143],[49.524,27.133],[49.489,27.175],[49.516,27.188],[49.545,27.174],[49.572,27.194],[49.559,27.14],[49.57,27.104],[49.612,27.072],[49.699,26.958],[49.872,26.862],[49.973,26.842],[50.069,26.729],[50.158,26.665],[50.162,26.639],[50.093,26.689],[50.024,26.7],[50.006,26.748],[49.984,26.708],[50.031,26.495],[50.058,26.464],[50.192,26.404],[50.217,26.324],[50.212,26.191],[50.182,26.16],[50.174,26.181],[50.155,26.166],[50.158,26.102],[50.141,26.036],[50.126,26.046],[50.113,26.103],[50.074,26.132],[50.066,26.174],[50.032,26.201],[49.976,26.14],[50.01,26.077],[49.99,26.06],[49.99,26.002],[50.021,26.004],[50.024,26.036],[50.065,26.013],[50.067,25.996],[50.101,25.989],[50.128,25.94],[50.108,25.915],[50.118,25.868],[50.162,25.783],[50.247,25.679],[50.257,25.632],[50.227,25.687],[50.159,25.732],[50.145,25.733],[50.149,25.7],[50.182,25.673],[50.196,25.687],[50.234,25.615],[50.348,25.482],[50.374,25.461],[50.362,25.503],[50.381,25.513],[50.41,25.464],[50.472,25.437],[50.52,25.315],[50.518,25.245],[50.549,25.175],[50.562,25.055],[50.573,25.043],[50.58,25.062],[50.606,25.043],[50.662,24.98],[50.681,24.914],[50.726,24.882],[50.737,24.782],[50.761,24.736],[50.786,24.727],[50.808,24.747]]],[[[42.186,16.706],[42.179,16.583],[42.073,16.636],[42.118,16.66],[42.086,16.694],[41.976,16.664],[41.955,16.67],[41.843,16.747],[41.825,16.798],[41.778,16.813],[41.757,16.896],[41.828,16.859],[41.86,16.821],[41.863,16.785],[41.905,16.748],[41.941,16.751],[41.953,16.733],[42.011,16.739],[42.035,16.716],[42.065,16.728],[42.036,16.734],[42.022,16.756],[42.048,16.812],[42.062,16.814],[42.104,16.792],[42.117,16.744],[42.186,16.706]]],[[[41.919,16.791],[41.835,16.892],[41.888,16.908],[41.928,16.955],[41.921,16.979],[41.846,16.997],[41.861,17.014],[41.938,16.973],[41.944,16.883],[41.976,16.876],[41.985,16.854],[41.944,16.853],[41.932,16.838],[41.938,16.821],[41.995,16.797],[42.002,16.761],[41.919,16.791]]],[[[49.565,27.352],[49.689,27.318],[49.607,27.322],[49.565,27.298],[49.538,27.311],[49.554,27.328],[49.531,27.346],[49.488,27.334],[49.456,27.29],[49.454,27.316],[49.501,27.361],[49.565,27.352]]],[[[37.027,25.42],[37.042,25.407],[37.023,25.4],[36.967,25.449],[36.947,25.442],[36.952,25.468],[36.999,25.469],[37.022,25.453],[37.027,25.42]]],[[[36.942,25.418],[36.961,25.414],[36.9,25.361],[36.799,25.447],[36.777,25.496],[36.824,25.46],[36.916,25.427],[36.899,25.419],[36.904,25.394],[36.942,25.418]]],[[[36.849,25.533],[36.827,25.547],[36.841,25.57],[36.867,25.558],[36.849,25.533]]],[[[36.79,25.498],[36.719,25.556],[36.681,25.553],[36.691,25.567],[36.726,25.565],[36.883,25.454],[36.879,25.443],[36.79,25.498]]],[[[36.901,25.549],[36.898,25.595],[36.914,25.607],[36.928,25.593],[36.914,25.569],[36.928,25.529],[36.901,25.549]]],[[[36.683,25.572],[36.668,25.55],[36.568,25.598],[36.546,25.603],[36.539,25.589],[36.491,25.645],[36.544,25.703],[36.523,25.662],[36.531,25.645],[36.609,25.592],[36.631,25.592],[36.638,25.575],[36.683,25.572]]],[[[36.544,25.731],[36.542,25.802],[36.591,25.861],[36.555,25.796],[36.598,25.758],[36.588,25.714],[36.611,25.709],[36.583,25.699],[36.544,25.731]]]]}},{"type":"Feature","properties":{"name":"United Arab Emirates","blocKey":"gcc","blocLabel":"GCC","color":"#7d8a3c","certainty":"member","basis":"Gulf Cooperation Council"},"geometry":{"type":"MultiPolygon","coordinates":[[[[56.279,25.627],[56.34,25.605],[56.37,25.526],[56.359,25.376],[56.384,25.313],[56.362,25.057],[56.383,24.978],[56.329,24.973],[56.308,24.895],[56.242,24.842],[56.171,24.824],[56.127,24.746],[56.099,24.731],[56.062,24.732],[56.032,24.754],[56.002,24.823],[55.965,24.854],[55.961,24.881],[55.978,24.886],[56.029,24.861],[56.006,24.956],[55.978,24.972],[55.897,24.969],[55.799,24.886],[55.793,24.722],[55.818,24.643],[55.76,24.559],[55.775,24.426],[55.811,24.389],[55.807,24.341],[55.756,24.23],[55.83,24.212],[55.903,24.232],[55.933,24.221],[55.998,24.081],[55.987,24.065],[55.807,24.007],[55.762,24.028],[55.647,24.025],[55.457,23.963],[55.462,23.931],[55.531,23.875],[55.538,23.77],[55.478,23.676],[55.445,23.552],[55.375,23.469],[55.321,23.275],[55.226,23.121],[55.191,22.995],[55.187,22.704],[55.12,22.623],[52.558,22.939],[51.579,24.102],[51.569,24.256],[51.591,24.284],[51.592,24.329],[51.574,24.364],[51.594,24.385],[51.624,24.339],[51.634,24.227],[51.649,24.219],[51.663,24.233],[51.673,24.278],[51.701,24.222],[51.724,24.228],[51.759,24.291],[51.779,24.262],[51.773,24.153],[51.788,24.049],[51.809,24.001],[51.894,23.99],[51.929,23.965],[51.931,23.988],[51.953,23.991],[52.017,23.99],[52.067,23.963],[52.156,23.967],[52.341,24.008],[52.575,24.152],[52.581,24.199],[52.6,24.21],[52.681,24.141],[52.72,24.152],[52.783,24.138],[52.828,24.152],[52.947,24.138],[53.006,24.166],[53.067,24.122],[53.107,24.138],[53.146,24.121],[53.163,24.125],[53.142,24.166],[53.165,24.17],[53.254,24.099],[53.446,24.12],[53.479,24.094],[53.519,24.097],[53.59,24.047],[53.657,24.049],[53.703,24.071],[53.879,24.065],[53.951,24.104],[54.123,24.145],[54.187,24.204],[54.253,24.221],[54.323,24.271],[54.383,24.255],[54.427,24.292],[54.486,24.388],[54.483,24.425],[54.499,24.433],[54.486,24.447],[54.54,24.433],[54.513,24.474],[54.574,24.447],[54.571,24.473],[54.499,24.488],[54.417,24.535],[54.452,24.557],[54.465,24.535],[54.486,24.57],[54.513,24.515],[54.537,24.498],[54.561,24.502],[54.54,24.516],[54.582,24.508],[54.636,24.598],[54.616,24.621],[54.643,24.631],[54.671,24.666],[54.643,24.749],[54.707,24.804],[54.754,24.792],[54.774,24.815],[54.76,24.831],[55.05,24.993],[55.045,25.014],[55.082,25.017],[55.259,25.215],[55.282,25.261],[55.318,25.225],[55.301,25.194],[55.329,25.201],[55.334,25.219],[55.304,25.283],[55.339,25.321],[55.363,25.324],[55.365,25.359],[55.387,25.357],[55.439,25.413],[55.455,25.4],[55.473,25.413],[55.551,25.579],[55.568,25.585],[55.542,25.543],[55.548,25.529],[55.626,25.536],[55.657,25.598],[55.76,25.68],[55.842,25.714],[55.96,25.824],[55.937,25.777],[55.952,25.772],[55.966,25.834],[56.031,25.901],[56.041,25.934],[56.008,25.907],[56.077,26.061],[56.163,26.074],[56.183,26.015],[56.171,25.877],[56.14,25.823],[56.172,25.765],[56.141,25.733],[56.145,25.671],[56.206,25.618],[56.279,25.627]],[[56.261,25.331],[56.234,25.313],[56.245,25.278],[56.208,25.255],[56.208,25.221],[56.22,25.215],[56.252,25.218],[56.344,25.267],[56.349,25.294],[56.261,25.331]]],[[[56.263,25.249],[56.265,25.281],[56.288,25.272],[56.263,25.249]]],[[[53.657,24.158],[53.628,24.164],[53.643,24.186],[53.723,24.23],[53.777,24.23],[53.848,24.275],[53.863,24.235],[53.955,24.201],[53.965,24.173],[53.951,24.15],[53.885,24.141],[53.837,24.177],[53.834,24.152],[53.775,24.13],[53.657,24.158]]],[[[54.191,24.227],[54.181,24.245],[54.113,24.272],[54.102,24.298],[54.115,24.319],[54.137,24.327],[54.188,24.277],[54.191,24.227]]],[[[52.574,24.344],[52.611,24.373],[52.634,24.367],[52.651,24.325],[52.592,24.253],[52.556,24.307],[52.574,24.344]]],[[[53.323,24.263],[53.276,24.289],[53.266,24.274],[53.187,24.276],[53.191,24.3],[53.242,24.298],[53.33,24.336],[53.367,24.319],[53.362,24.351],[53.417,24.413],[53.447,24.38],[53.44,24.341],[53.346,24.298],[53.323,24.263]]],[[[54.383,24.44],[54.335,24.453],[54.335,24.469],[54.396,24.523],[54.397,24.483],[54.451,24.453],[54.471,24.425],[54.383,24.44]]],[[[54.266,24.295],[54.222,24.284],[54.183,24.315],[54.185,24.337],[54.232,24.358],[54.273,24.303],[54.266,24.295]]],[[[54.326,24.373],[54.336,24.35],[54.309,24.314],[54.279,24.364],[54.311,24.355],[54.292,24.385],[54.326,24.373]]],[[[52.31,24.539],[52.339,24.502],[52.314,24.476],[52.283,24.497],[52.31,24.539]]]]}},{"type":"Feature","properties":{"name":"Qatar","blocKey":"gcc","blocLabel":"GCC","color":"#7d8a3c","certainty":"member","basis":"Gulf Cooperation Council"},"geometry":{"type":"Polygon","coordinates":[[[50.808,24.747],[50.853,24.77],[50.86,24.796],[50.851,24.891],[50.797,25.004],[50.809,25.069],[50.776,25.092],[50.758,25.186],[50.766,25.324],[50.751,25.42],[50.764,25.482],[50.751,25.495],[50.797,25.53],[50.82,25.472],[50.847,25.467],[50.828,25.525],[50.833,25.579],[50.785,25.605],[50.857,25.651],[50.876,25.632],[50.869,25.56],[50.899,25.532],[50.909,25.598],[50.921,25.608],[50.95,25.598],[50.978,25.646],[50.903,25.64],[50.888,25.681],[50.909,25.745],[50.902,25.79],[50.916,25.786],[50.933,25.811],[50.95,25.775],[50.973,25.798],[50.971,25.831],[50.949,25.838],[50.984,25.981],[51.005,25.967],[51.047,26.053],[51.142,26.088],[51.176,26.14],[51.194,26.134],[51.251,26.16],[51.347,26.105],[51.347,26.039],[51.377,26.023],[51.388,25.967],[51.404,25.954],[51.512,25.946],[51.559,25.914],[51.577,25.881],[51.594,25.758],[51.584,25.742],[51.563,25.763],[51.545,25.737],[51.555,25.721],[51.574,25.735],[51.59,25.712],[51.557,25.682],[51.553,25.708],[51.505,25.687],[51.547,25.663],[51.549,25.631],[51.491,25.618],[51.491,25.549],[51.472,25.521],[51.517,25.44],[51.519,25.297],[51.59,25.284],[51.608,25.255],[51.611,25.022],[51.587,24.953],[51.5,24.855],[51.444,24.68],[51.382,24.635],[51.341,24.57],[51.329,24.585],[51.347,24.635],[51.286,24.645],[51.278,24.663],[51.221,24.644],[51.147,24.576],[51.095,24.56],[50.979,24.568],[50.929,24.587],[50.881,24.636],[50.808,24.747]]]}},{"type":"Feature","properties":{"name":"Kuwait","blocKey":"gcc","blocLabel":"GCC","color":"#7d8a3c","certainty":"member","basis":"Gulf Cooperation Council"},"geometry":{"type":"MultiPolygon","coordinates":[[[[47.948,29.994],[47.975,29.943],[47.996,29.828],[48.052,29.743],[48.079,29.744],[48.181,29.562],[48.177,29.542],[48.155,29.539],[48.086,29.575],[47.966,29.576],[47.807,29.468],[47.764,29.413],[47.718,29.394],[47.705,29.364],[47.837,29.388],[47.851,29.38],[47.823,29.363],[47.816,29.338],[47.858,29.323],[47.986,29.394],[48.025,29.355],[48.1,29.35],[48.095,29.258],[48.134,29.154],[48.158,29.017],[48.226,28.918],[48.279,28.894],[48.277,28.84],[48.329,28.76],[48.394,28.743],[48.38,28.71],[48.387,28.675],[48.366,28.689],[48.38,28.668],[48.353,28.661],[48.352,28.641],[48.387,28.654],[48.397,28.583],[48.433,28.54],[47.668,28.534],[47.66,28.56],[47.582,28.631],[47.55,28.771],[47.494,28.904],[47.434,28.995],[46.532,29.096],[46.712,29.271],[46.853,29.445],[46.958,29.62],[46.989,29.713],[47.11,29.961],[47.145,30.003],[47.358,30.092],[47.674,30.098],[47.731,30.089],[47.948,29.994]]],[[[48.338,29.463],[48.389,29.425],[48.397,29.387],[48.317,29.427],[48.269,29.43],[48.281,29.471],[48.338,29.463]]],[[[48.353,29.71],[48.303,29.645],[48.229,29.6],[48.186,29.604],[48.162,29.63],[48.085,29.768],[48.046,29.8],[48.113,29.839],[48.119,29.874],[48.085,29.88],[48.095,29.895],[48.159,29.879],[48.161,29.902],[48.197,29.925],[48.147,29.935],[48.14,29.97],[48.121,29.981],[48.162,29.996],[48.189,29.984],[48.344,29.791],[48.36,29.754],[48.353,29.71]]],[[[48.079,30.004],[48.031,29.971],[48.011,29.98],[48.055,30.024],[48.109,30.028],[48.079,30.004]]]]}},{"type":"Feature","properties":{"name":"Bahrain","blocKey":"gcc","blocLabel":"GCC","color":"#7d8a3c","certainty":"member","basis":"Gulf Cooperation Council"},"geometry":{"type":"MultiPolygon","coordinates":[[[[50.552,26.194],[50.595,26.16],[50.62,26.185],[50.633,26.147],[50.646,26.146],[50.635,26.116],[50.615,26.111],[50.618,25.965],[50.604,25.855],[50.565,25.79],[50.531,25.885],[50.468,25.958],[50.46,25.985],[50.491,26.048],[50.449,26.162],[50.461,26.225],[50.481,26.243],[50.545,26.228],[50.593,26.239],[50.604,26.198],[50.552,26.194]]],[[[50.398,26.175],[50.419,26.166],[50.423,26.12],[50.386,26.123],[50.383,26.16],[50.398,26.175]]],[[[50.602,26.279],[50.655,26.277],[50.679,26.208],[50.657,26.211],[50.648,26.239],[50.612,26.241],[50.602,26.279]]],[[[50.774,25.722],[50.801,25.725],[50.783,25.697],[50.796,25.685],[50.762,25.668],[50.776,25.639],[50.757,25.58],[50.738,25.596],[50.749,25.621],[50.741,25.674],[50.774,25.722]]],[[[50.776,25.753],[50.791,25.749],[50.776,25.753]]],[[[50.805,25.679],[50.817,25.669],[50.805,25.679]]],[[[50.793,25.652],[50.817,25.644],[50.812,25.632],[50.791,25.631],[50.793,25.652]]]]}},{"type":"Feature","properties":{"name":"Oman","blocKey":"gcc","blocLabel":"GCC","color":"#7d8a3c","certainty":"member","basis":"Gulf Cooperation Council"},"geometry":{"type":"MultiPolygon","coordinates":[[[[56.261,25.331],[56.349,25.294],[56.344,25.267],[56.252,25.218],[56.22,25.215],[56.208,25.221],[56.208,25.255],[56.245,25.278],[56.234,25.313],[56.261,25.331]],[[56.263,25.249],[56.288,25.272],[56.265,25.281],[56.263,25.249]]],[[[56.077,26.061],[56.091,26.107],[56.182,26.246],[56.208,26.263],[56.212,26.208],[56.267,26.227],[56.295,26.194],[56.367,26.222],[56.404,26.215],[56.395,26.239],[56.368,26.244],[56.308,26.222],[56.316,26.29],[56.358,26.265],[56.364,26.28],[56.322,26.31],[56.356,26.338],[56.364,26.386],[56.384,26.359],[56.404,26.372],[56.412,26.345],[56.462,26.332],[56.487,26.331],[56.48,26.352],[56.501,26.359],[56.509,26.324],[56.453,26.318],[56.399,26.269],[56.432,26.239],[56.476,26.249],[56.487,26.235],[56.46,26.202],[56.453,26.222],[56.432,26.222],[56.432,26.194],[56.48,26.146],[56.412,26.158],[56.404,26.187],[56.377,26.174],[56.391,26.201],[56.368,26.205],[56.329,26.173],[56.336,26.112],[56.364,26.146],[56.364,26.105],[56.473,26.099],[56.38,26.038],[56.384,26.022],[56.409,26.034],[56.423,26.023],[56.423,26.005],[56.4,25.99],[56.422,25.957],[56.453,25.947],[56.439,25.926],[56.408,25.937],[56.384,25.926],[56.399,25.902],[56.364,25.838],[56.364,25.807],[56.316,25.75],[56.302,25.742],[56.302,25.763],[56.274,25.709],[56.279,25.627],[56.206,25.618],[56.145,25.671],[56.141,25.733],[56.172,25.765],[56.14,25.823],[56.171,25.877],[56.183,26.015],[56.163,26.074],[56.077,26.061]]],[[[56.383,24.978],[56.405,24.897],[56.48,24.765],[56.494,24.7],[56.611,24.496],[56.801,24.303],[56.841,24.224],[56.939,24.116],[57.152,23.954],[57.326,23.884],[57.645,23.79],[57.796,23.782],[57.835,23.74],[57.888,23.721],[58.132,23.713],[58.227,23.679],[58.282,23.631],[58.317,23.621],[58.453,23.624],[58.491,23.657],[58.584,23.647],[58.659,23.562],[58.68,23.562],[58.707,23.535],[58.721,23.549],[58.728,23.528],[58.762,23.542],[58.793,23.496],[58.808,23.421],[58.929,23.318],[58.956,23.259],[59.002,23.212],[59.01,23.153],[59.074,23.093],[59.088,23.048],[59.232,22.943],[59.298,22.793],[59.352,22.761],[59.411,22.671],[59.535,22.583],[59.516,22.562],[59.55,22.555],[59.627,22.58],[59.694,22.541],[59.721,22.541],[59.74,22.498],[59.763,22.499],[59.746,22.538],[59.803,22.535],[59.825,22.509],[59.845,22.445],[59.812,22.237],[59.735,22.123],[59.688,22.083],[59.645,21.926],[59.606,21.91],[59.498,21.756],[59.449,21.625],[59.355,21.486],[59.344,21.445],[59.166,21.363],[59.054,21.277],[58.854,21.066],[58.808,20.991],[58.799,20.936],[58.735,20.883],[58.739,20.862],[58.68,20.828],[58.659,20.791],[58.668,20.772],[58.687,20.759],[58.729,20.787],[58.728,20.767],[58.7,20.741],[58.667,20.746],[58.645,20.691],[58.592,20.644],[58.519,20.417],[58.484,20.404],[58.446,20.359],[58.359,20.382],[58.276,20.368],[58.28,20.385],[58.203,20.405],[58.213,20.465],[58.235,20.424],[58.228,20.489],[58.264,20.588],[58.255,20.609],[58.206,20.613],[58.091,20.567],[58.067,20.511],[58.076,20.48],[57.994,20.442],[57.956,20.4],[57.974,20.352],[57.967,20.33],[57.856,20.261],[57.824,20.201],[57.848,20.112],[57.814,19.977],[57.762,19.843],[57.689,19.728],[57.72,19.653],[57.704,19.549],[57.774,19.41],[57.751,19.268],[57.812,19.157],[57.802,19.095],[57.84,19.03],[57.816,18.992],[57.71,18.944],[57.501,18.954],[57.208,18.91],[56.915,18.81],[56.808,18.746],[56.66,18.595],[56.641,18.559],[56.644,18.468],[56.612,18.4],[56.601,18.305],[56.549,18.19],[56.561,18.149],[56.528,18.115],[56.463,18.084],[56.432,18.032],[56.358,17.97],[56.356,17.94],[56.188,17.957],[56.116,17.937],[56.031,17.943],[55.909,17.907],[55.653,17.895],[55.445,17.841],[55.369,17.696],[55.263,17.608],[55.228,17.539],[55.23,17.489],[55.301,17.417],[55.294,17.352],[55.251,17.29],[55.26,17.234],[55.219,17.21],[55.189,17.145],[55.144,17.128],[55.125,17.092],[55.027,17.011],[55.011,17.026],[54.975,16.997],[54.792,16.951],[54.781,16.964],[54.739,16.956],[54.698,16.97],[54.674,17.02],[54.592,17.038],[54.462,17.025],[54.39,17.039],[54.369,17.025],[54.085,17.011],[54.013,16.978],[54.009,16.937],[53.981,16.909],[53.753,16.868],[53.669,16.784],[53.615,16.758],[53.339,16.735],[53.09,16.642],[52.802,17.267],[52.721,17.298],[51.979,18.996],[54.978,19.995],[55.638,21.979],[55.627,22.024],[55.187,22.704],[55.191,22.995],[55.226,23.121],[55.321,23.275],[55.375,23.469],[55.445,23.552],[55.478,23.676],[55.538,23.77],[55.531,23.875],[55.462,23.931],[55.457,23.963],[55.647,24.025],[55.762,24.028],[55.807,24.007],[55.987,24.065],[55.998,24.081],[55.933,24.221],[55.903,24.232],[55.83,24.212],[55.756,24.23],[55.807,24.341],[55.809,24.398],[55.775,24.426],[55.76,24.559],[55.818,24.643],[55.795,24.704],[55.789,24.855],[55.829,24.921],[55.897,24.969],[55.935,24.978],[56.006,24.956],[56.029,24.861],[55.978,24.886],[55.958,24.869],[56.002,24.823],[56.032,24.754],[56.062,24.732],[56.099,24.731],[56.127,24.746],[56.171,24.824],[56.242,24.842],[56.308,24.895],[56.329,24.973],[56.383,24.978]]],[[[55.836,17.491],[55.837,17.51],[55.863,17.519],[55.891,17.505],[55.836,17.491]]],[[[56.055,17.56],[56.068,17.532],[56.096,17.519],[56.047,17.493],[55.973,17.498],[55.964,17.52],[56.055,17.56]]],[[[58.906,20.626],[58.95,20.509],[58.844,20.437],[58.808,20.38],[58.785,20.28],[58.724,20.215],[58.691,20.208],[58.652,20.17],[58.636,20.277],[58.648,20.369],[58.694,20.407],[58.701,20.431],[58.751,20.44],[58.781,20.467],[58.796,20.538],[58.891,20.694],[58.918,20.681],[58.906,20.626]]]]}},{"type":"Feature","properties":{"name":"Israel","blocKey":"us_ally","blocLabel":"US treaty ally / MNNA","color":"#5b6fb0","certainty":"member","basis":"US Major Non-NATO Ally"},"geometry":{"type":"Polygon","coordinates":[[[34.248,31.211],[34.351,31.289],[34.346,31.358],[34.367,31.393],[34.556,31.54],[34.481,31.583],[34.61,31.766],[34.712,31.952],[34.838,32.281],[34.942,32.725],[34.948,32.814],[34.97,32.841],[35.028,32.827],[35.063,32.858],[35.1,33.088],[35.284,33.101],[35.345,33.056],[35.48,33.087],[35.512,33.147],[35.52,33.222],[35.549,33.281],[35.604,33.24],[35.62,33.27],[35.652,33.277],[35.699,33.323],[35.769,33.343],[35.821,33.407],[35.81,33.36],[35.764,33.334],[35.802,33.312],[35.769,33.273],[35.804,33.248],[35.808,33.202],[35.83,33.19],[35.811,33.112],[35.849,33.099],[35.859,32.99],[35.888,32.945],[35.85,32.896],[35.834,32.828],[35.758,32.744],[35.636,32.679],[35.612,32.682],[35.561,32.641],[35.58,32.56],[35.559,32.553],[35.566,32.526],[35.552,32.526],[35.58,32.498],[35.559,32.47],[35.573,32.457],[35.552,32.436],[35.559,32.414],[35.545,32.41],[35.561,32.385],[35.407,32.415],[35.393,32.494],[35.363,32.51],[35.27,32.51],[35.191,32.542],[35.064,32.463],[35.045,32.434],[35.022,32.345],[34.997,32.323],[34.99,32.278],[35.009,32.268],[35.008,32.244],[34.961,32.202],[35.007,32.021],[34.987,31.967],[35.039,31.909],[35.034,31.861],[34.977,31.833],[35.013,31.829],[35.076,31.854],[35.112,31.824],[35.186,31.809],[35.184,31.825],[35.216,31.82],[35.205,31.877],[35.222,31.879],[35.233,31.843],[35.265,31.826],[35.253,31.77],[35.263,31.749],[35.238,31.709],[35.126,31.733],[34.974,31.63],[34.937,31.582],[34.927,31.494],[34.867,31.396],[34.879,31.363],[34.927,31.345],[35.04,31.363],[35.165,31.362],[35.223,31.381],[35.39,31.487],[35.459,31.492],[35.453,31.401],[35.396,31.258],[35.436,31.16],[35.438,31.104],[35.392,31.024],[35.385,30.963],[35.322,30.89],[35.317,30.823],[35.28,30.78],[35.264,30.72],[35.205,30.617],[35.14,30.43],[35.162,30.361],[35.125,30.245],[35.145,30.123],[35.086,30.034],[35.054,29.923],[35.049,29.842],[34.951,29.546],[34.903,29.49],[34.887,29.49],[34.855,29.546],[34.824,29.742],[34.741,29.94],[34.733,30.013],[34.599,30.345],[34.527,30.41],[34.536,30.482],[34.504,30.53],[34.48,30.651],[34.248,31.211]]]}},{"type":"Feature","properties":{"name":"Jordan","blocKey":"us_ally","blocLabel":"US treaty ally / MNNA","color":"#5b6fb0","certainty":"member","basis":"US Major Non-NATO Ally"},"geometry":{"type":"Polygon","coordinates":[[[35.612,32.682],[35.636,32.679],[35.77,32.748],[35.896,32.713],[35.944,32.691],[35.937,32.674],[35.955,32.657],[36.004,32.655],[36.006,32.608],[36.066,32.517],[36.156,32.515],[36.177,32.527],[36.388,32.379],[36.654,32.343],[36.69,32.32],[36.729,32.328],[36.807,32.313],[38.775,33.372],[39.057,32.497],[38.978,32.475],[39.029,32.328],[39.046,32.308],[39.236,32.353],[39.256,32.343],[39.292,32.245],[39.146,32.118],[38.963,31.994],[36.96,31.491],[37.48,31.007],[37.981,30.499],[37.648,30.331],[37.492,30.011],[37.47,29.995],[36.729,29.854],[36.477,29.495],[36.069,29.2],[36.016,29.19],[34.949,29.352],[34.962,29.36],[34.969,29.451],[34.998,29.518],[34.997,29.534],[34.956,29.559],[34.96,29.586],[35.049,29.842],[35.054,29.923],[35.086,30.034],[35.145,30.123],[35.125,30.245],[35.162,30.361],[35.14,30.43],[35.205,30.617],[35.264,30.72],[35.28,30.78],[35.317,30.823],[35.322,30.89],[35.385,30.963],[35.392,31.024],[35.438,31.104],[35.436,31.16],[35.396,31.258],[35.453,31.401],[35.48,31.641],[35.528,31.735],[35.559,31.765],[35.525,31.919],[35.546,31.945],[35.523,32.058],[35.545,32.087],[35.535,32.111],[35.559,32.155],[35.573,32.238],[35.559,32.238],[35.573,32.252],[35.552,32.368],[35.566,32.368],[35.545,32.41],[35.573,32.457],[35.561,32.477],[35.58,32.491],[35.552,32.519],[35.566,32.526],[35.559,32.553],[35.58,32.56],[35.561,32.641],[35.612,32.682]]]}},{"type":"Feature","properties":{"name":"Egypt","blocKey":"us_ally","blocLabel":"US treaty ally / MNNA","color":"#5b6fb0","certainty":"member","basis":"US Major Non-NATO Ally"},"geometry":{"type":"MultiPolygon","coordinates":[[[[34.248,31.211],[34.48,30.651],[34.504,30.53],[34.536,30.482],[34.527,30.41],[34.599,30.345],[34.733,30.013],[34.741,29.94],[34.824,29.742],[34.855,29.546],[34.887,29.49],[34.737,29.311],[34.745,29.291],[34.729,29.199],[34.695,29.164],[34.675,29.107],[34.686,28.989],[34.64,28.949],[34.647,28.863],[34.62,28.846],[34.633,28.771],[34.625,28.736],[34.511,28.538],[34.524,28.507],[34.469,28.455],[34.41,28.32],[34.413,28.233],[34.455,28.175],[34.427,28.082],[34.444,28.054],[34.435,27.976],[34.401,27.969],[34.371,27.924],[34.331,27.914],[34.321,27.861],[34.279,27.858],[34.259,27.802],[34.214,27.791],[34.221,27.77],[34.257,27.77],[34.257,27.729],[34.19,27.787],[34.054,27.815],[33.988,27.887],[33.904,27.942],[33.879,27.935],[33.866,27.961],[33.763,28.024],[33.764,28.049],[33.716,28.075],[33.675,28.161],[33.635,28.181],[33.618,28.233],[33.565,28.297],[33.434,28.366],[33.369,28.448],[33.256,28.544],[33.27,28.544],[33.263,28.577],[33.238,28.566],[33.256,28.552],[33.229,28.569],[33.195,28.675],[33.228,28.764],[33.175,28.837],[33.166,28.976],[33.178,28.99],[33.145,29.032],[33.079,29.065],[33.061,29.101],[32.958,29.202],[32.886,29.243],[32.868,29.297],[32.839,29.316],[32.817,29.36],[32.817,29.414],[32.742,29.456],[32.735,29.484],[32.729,29.456],[32.715,29.456],[32.724,29.54],[32.712,29.58],[32.681,29.6],[32.691,29.734],[32.648,29.795],[32.605,29.824],[32.625,29.846],[32.625,29.874],[32.572,29.929],[32.585,29.952],[32.562,29.976],[32.578,29.984],[32.578,30.011],[32.557,29.976],[32.572,29.943],[32.554,29.962],[32.513,29.962],[32.477,29.932],[32.473,29.882],[32.51,29.867],[32.393,29.734],[32.364,29.688],[32.338,29.592],[32.388,29.526],[32.451,29.487],[32.581,29.369],[32.632,29.243],[32.659,29.111],[32.66,29.089],[32.625,29.048],[32.625,28.973],[32.673,28.922],[32.681,28.881],[32.749,28.805],[32.807,28.778],[32.869,28.579],[33.003,28.489],[33.043,28.401],[33.107,28.347],[33.126,28.288],[33.212,28.19],[33.242,28.175],[33.249,28.143],[33.338,28.085],[33.344,28.051],[33.442,28.017],[33.513,27.959],[33.554,27.896],[33.592,27.791],[33.489,27.846],[33.473,27.823],[33.523,27.752],[33.558,27.76],[33.537,27.708],[33.575,27.681],[33.592,27.647],[33.558,27.681],[33.558,27.66],[33.544,27.679],[33.527,27.678],[33.496,27.647],[33.565,27.572],[33.558,27.537],[33.633,27.496],[33.692,27.342],[33.838,27.243],[33.838,27.194],[33.825,27.18],[33.837,27.121],[33.901,27.059],[33.901,27.014],[33.952,26.931],[33.996,26.897],[33.996,26.838],[33.96,26.85],[33.948,26.831],[33.952,26.743],[33.932,26.683],[33.941,26.654],[34.014,26.612],[34.339,26.002],[34.547,25.725],[34.633,25.569],[34.682,25.429],[34.743,25.351],[34.807,25.212],[34.939,25.003],[34.954,24.944],[34.99,24.905],[35.002,24.816],[35.063,24.764],[35.11,24.644],[35.16,24.575],[35.145,24.5],[35.186,24.486],[35.235,24.4],[35.392,24.283],[35.429,24.186],[35.494,24.109],[35.511,24.111],[35.494,24.139],[35.504,24.141],[35.588,24.076],[35.605,24.019],[35.739,23.983],[35.793,23.902],[35.786,23.893],[35.75,23.932],[35.685,23.911],[35.599,23.929],[35.514,23.977],[35.491,23.948],[35.475,23.798],[35.483,23.772],[35.51,23.756],[35.51,23.684],[35.489,23.497],[35.548,23.394],[35.575,23.213],[35.621,23.139],[35.212,22.786],[35.621,23.139],[35.695,22.932],[35.764,22.87],[35.723,22.932],[35.756,22.922],[35.785,22.833],[35.848,22.763],[35.969,22.698],[36.121,22.676],[36.226,22.635],[36.291,22.568],[36.313,22.492],[36.428,22.426],[36.44,22.356],[36.563,22.297],[36.714,22.169],[36.748,22.161],[36.757,22.177],[36.782,22.164],[36.818,22.109],[36.895,22.066],[36.898,22.017],[36.884,21.996],[31.435,21.995],[31.492,22.173],[31.461,22.215],[31.423,22.227],[31.36,22.188],[31.248,21.994],[24.981,21.995],[24.981,29.181],[24.957,29.293],[24.864,29.503],[24.871,29.638],[24.805,29.755],[24.798,29.796],[24.812,29.891],[24.697,30.123],[24.689,30.183],[24.772,30.331],[24.908,30.499],[24.995,30.785],[24.883,31.039],[24.859,31.146],[24.849,31.349],[24.861,31.38],[25.024,31.494],[25.088,31.614],[25.151,31.656],[25.162,31.584],[25.191,31.531],[25.402,31.503],[25.824,31.615],[25.967,31.617],[26.362,31.522],[26.753,31.477],[26.866,31.437],[26.966,31.45],[27.054,31.409],[27.226,31.368],[27.246,31.381],[27.321,31.381],[27.342,31.368],[27.394,31.255],[27.446,31.223],[27.588,31.193],[27.61,31.203],[27.66,31.18],[27.853,31.24],[27.897,31.114],[27.927,31.099],[28.155,31.093],[28.204,31.071],[28.318,31.06],[28.424,31.083],[28.479,31.052],[28.528,31.05],[28.812,30.957],[28.836,30.911],[29.028,30.827],[29.219,30.838],[29.503,30.957],[29.766,31.122],[29.782,31.148],[29.838,31.154],[29.885,31.19],[29.864,31.196],[29.877,31.214],[29.898,31.203],[30.07,31.333],[30.067,31.305],[30.095,31.286],[30.173,31.271],[30.14,31.237],[30.165,31.217],[30.207,31.238],[30.202,31.227],[30.22,31.22],[30.261,31.244],[30.269,31.265],[30.289,31.238],[30.303,31.271],[30.288,31.278],[30.241,31.265],[30.255,31.278],[30.179,31.278],[30.252,31.303],[30.313,31.351],[30.348,31.421],[30.344,31.498],[30.365,31.46],[30.399,31.443],[30.371,31.462],[30.362,31.509],[30.456,31.463],[30.536,31.464],[30.974,31.587],[30.628,31.434],[30.558,31.422],[30.543,31.395],[30.563,31.39],[30.654,31.396],[30.675,31.422],[30.734,31.388],[30.756,31.423],[30.799,31.446],[30.892,31.419],[30.94,31.443],[30.94,31.457],[30.981,31.437],[31.029,31.519],[31.071,31.517],[31.119,31.493],[31.129,31.504],[31.111,31.512],[31.13,31.517],[31.111,31.54],[31.023,31.583],[30.978,31.584],[31.097,31.608],[31.221,31.58],[31.557,31.443],[31.748,31.482],[31.874,31.536],[31.945,31.521],[32.025,31.4],[32.2,31.295],[31.995,31.395],[31.968,31.437],[31.994,31.438],[31.918,31.524],[31.889,31.532],[31.879,31.519],[31.865,31.525],[31.865,31.512],[31.851,31.519],[31.845,31.498],[31.865,31.498],[31.879,31.429],[31.842,31.465],[31.824,31.443],[31.858,31.443],[31.855,31.423],[31.879,31.416],[31.83,31.409],[31.845,31.395],[31.828,31.368],[31.858,31.354],[31.797,31.36],[31.796,31.311],[31.767,31.285],[31.821,31.278],[31.834,31.252],[31.886,31.224],[31.906,31.252],[31.906,31.224],[31.893,31.217],[31.906,31.217],[31.899,31.203],[31.927,31.211],[31.926,31.187],[31.987,31.23],[32.009,31.211],[32.037,31.217],[32.037,31.15],[32.016,31.128],[32.05,31.142],[32.07,31.107],[32.044,31.086],[32.084,31.084],[32.084,31.066],[32.106,31.053],[32.132,31.066],[32.107,31.073],[32.098,31.093],[32.146,31.08],[32.138,31.093],[32.159,31.093],[32.153,31.107],[32.166,31.114],[32.18,31.107],[32.184,31.125],[32.234,31.105],[32.283,31.137],[32.262,31.17],[32.29,31.17],[32.295,31.213],[32.271,31.258],[32.283,31.265],[32.214,31.278],[32.207,31.295],[32.331,31.271],[32.344,31.242],[32.39,31.227],[32.51,31.107],[32.602,31.061],[32.762,31.081],[32.927,31.155],[32.84,31.101],[32.667,31.052],[32.715,31.052],[32.701,31.039],[32.77,31.046],[32.893,31.101],[32.917,31.083],[32.941,31.093],[32.914,31.101],[32.927,31.112],[32.969,31.086],[32.975,31.066],[32.961,31.066],[33.01,31.056],[33.023,31.073],[33.009,31.086],[33.057,31.101],[33.064,31.135],[33.03,31.101],[32.954,31.107],[32.985,31.11],[33.03,31.162],[33.109,31.196],[33.126,31.19],[33.099,31.183],[33.158,31.118],[33.119,31.107],[33.145,31.078],[33.133,31.046],[33.221,31.06],[33.195,31.073],[33.262,31.101],[33.304,31.08],[33.303,31.1],[33.318,31.101],[33.277,31.107],[33.386,31.114],[33.378,31.133],[33.406,31.137],[33.406,31.155],[33.592,31.114],[33.854,31.163],[34.047,31.229],[34.2,31.314],[34.248,31.211]],[[34.862,22.68],[34.778,22.5],[34.862,22.68]],[[34.682,22.298],[34.147,22.192],[34.682,22.298]]],[[[33.955,26.79],[33.976,26.79],[34.004,26.708],[33.955,26.79]]],[[[34.007,27.509],[34.028,27.502],[34.051,27.455],[34.031,27.451],[33.956,27.504],[33.934,27.495],[33.914,27.524],[33.964,27.534],[34.007,27.509]]],[[[34.585,27.955],[34.62,27.92],[34.518,27.93],[34.496,27.955],[34.49,27.996],[34.517,28.017],[34.544,27.996],[34.507,27.986],[34.512,27.967],[34.571,27.974],[34.585,27.955]]],[[[32.979,31.082],[32.989,31.073],[32.979,31.082]]],[[[33.376,31.19],[33.476,31.142],[33.27,31.217],[33.376,31.19]]],[[[33.079,31.227],[33.105,31.24],[33.262,31.224],[33.103,31.227],[32.935,31.148],[33.079,31.227]]],[[[34.732,27.957],[34.732,27.919],[34.705,27.908],[34.662,27.93],[34.682,27.959],[34.732,27.957]]]]}},{"type":"Feature","properties":{"name":"Pakistan","blocKey":"us_ally","blocLabel":"US treaty ally / MNNA","color":"#5b6fb0","certainty":"member","basis":"US Major Non-NATO Ally"},"geometry":{"type":"MultiPolygon","coordinates":[[[[75.981,36.445],[75.969,36.302],[76.014,36.23],[75.97,36.202],[75.972,36.155],[75.901,36.114],[75.9,36.063],[75.922,36.032],[75.984,35.996],[76.09,35.978],[76.115,35.942],[76.138,35.827],[76.166,35.806],[76.312,35.81],[76.349,35.831],[76.403,35.831],[76.432,35.861],[76.555,35.898],[76.565,35.865],[76.551,35.784],[76.571,35.751],[76.677,35.714],[76.745,35.655],[76.777,35.646],[77.049,35.11],[77.023,35.086],[77.035,35.035],[77.013,34.986],[76.921,34.921],[76.853,34.943],[76.758,34.915],[76.744,34.819],[76.64,34.741],[76.536,34.726],[76.438,34.763],[76.262,34.685],[76.155,34.662],[76.058,34.683],[76.023,34.677],[75.973,34.622],[75.777,34.504],[75.612,34.498],[75.348,34.557],[75.213,34.645],[75.018,34.63],[74.665,34.688],[74.412,34.764],[74.286,34.769],[74.121,34.691],[73.962,34.668],[73.919,34.643],[73.926,34.565],[73.863,34.517],[73.84,34.444],[73.78,34.396],[73.783,34.347],[73.804,34.327],[73.853,34.307],[73.938,34.304],[73.991,34.219],[73.995,34.176],[73.893,34.115],[73.884,34.084],[73.916,34.028],[73.977,34.005],[74.045,34.019],[74.118,34.003],[74.228,34.013],[74.26,33.994],[74.272,33.962],[74.24,33.901],[74.178,33.858],[74.035,33.829],[73.966,33.735],[73.961,33.692],[73.977,33.648],[74.142,33.549],[74.158,33.494],[74.096,33.328],[73.992,33.253],[74.002,33.178],[74.098,33.105],[74.154,33.04],[74.311,32.994],[74.337,32.87],[74.307,32.81],[74.346,32.767],[74.439,32.786],[74.501,32.746],[74.574,32.753],[74.614,32.77],[74.654,32.837],[74.685,32.831],[74.682,32.787],[74.65,32.723],[74.656,32.641],[74.63,32.588],[74.663,32.498],[74.689,32.471],[74.725,32.461],[74.838,32.475],[74.907,32.445],[75.024,32.466],[75.126,32.412],[75.23,32.38],[75.327,32.312],[75.359,32.262],[75.317,32.211],[75.295,32.149],[75.196,32.129],[75.173,32.11],[75.174,32.087],[75.138,32.093],[75.102,32.078],[75.041,32.098],[75.023,32.095],[75.03,32.066],[74.986,32.063],[74.956,32.032],[74.889,32.029],[74.873,32.012],[74.829,32.025],[74.784,31.943],[74.698,31.95],[74.67,31.904],[74.541,31.811],[74.535,31.771],[74.489,31.711],[74.556,31.612],[74.617,31.459],[74.532,31.303],[74.506,31.175],[74.537,31.115],[74.617,31.115],[74.659,31.084],[74.579,31.043],[74.564,31.004],[74.519,30.962],[74.442,30.946],[74.401,30.893],[74.319,30.893],[74.3,30.838],[74.257,30.815],[74.267,30.788],[74.191,30.717],[74.164,30.665],[74.067,30.611],[74.058,30.531],[74.004,30.509],[73.929,30.419],[73.9,30.422],[73.906,30.395],[73.852,30.373],[73.842,30.353],[73.892,30.33],[73.935,30.261],[73.944,30.188],[73.74,30.048],[73.558,30.013],[73.37,29.927],[73.233,29.537],[72.93,29.048],[72.355,28.767],[72.256,28.646],[72.198,28.445],[72.15,28.354],[71.988,28.228],[71.908,28.136],[71.874,27.96],[71.561,27.869],[71.398,27.868],[71.226,27.845],[70.914,27.718],[70.832,27.701],[70.762,27.71],[70.71,27.741],[70.641,27.855],[70.633,27.932],[70.535,28.016],[70.456,28.04],[70.342,28.011],[70.102,27.812],[69.994,27.571],[69.908,27.497],[69.848,27.41],[69.576,27.188],[69.534,27.126],[69.508,27.05],[69.465,26.808],[69.473,26.767],[69.504,26.735],[69.659,26.678],[69.772,26.595],[69.816,26.58],[70.056,26.589],[70.13,26.563],[70.158,26.53],[70.147,26.217],[70.078,26.1],[70.065,25.98],[70.115,25.882],[70.214,25.786],[70.249,25.708],[70.36,25.673],[70.477,25.676],[70.592,25.709],[70.632,25.701],[70.654,25.674],[70.654,25.397],[70.71,25.336],[70.735,25.267],[70.849,25.163],[70.915,24.947],[71.064,24.683],[70.977,24.64],[70.955,24.585],[70.958,24.556],[70.981,24.535],[70.977,24.465],[71.075,24.436],[71.073,24.402],[71.025,24.386],[70.997,24.357],[70.918,24.362],[70.841,24.306],[70.851,24.265],[70.755,24.231],[70.622,24.241],[70.585,24.258],[70.56,24.287],[70.546,24.362],[70.575,24.4],[70.563,24.424],[70.521,24.425],[70.416,24.402],[70.353,24.366],[70.299,24.363],[70.243,24.331],[70.11,24.305],[70.052,24.202],[70.016,24.174],[69.972,24.165],[69.715,24.169],[69.563,24.277],[69.281,24.284],[69.167,24.253],[69.068,24.288],[68.963,24.257],[68.904,24.321],[68.885,24.314],[68.839,24.236],[68.82,24.25],[68.799,24.329],[68.747,24.331],[68.726,24.289],[68.724,23.965],[68.432,23.967],[68.354,23.939],[68.349,23.965],[68.33,23.967],[68.335,23.941],[68.314,23.916],[68.3,23.911],[68.264,23.936],[68.26,23.896],[68.207,23.877],[68.183,23.842],[68.157,23.905],[68.171,23.84],[68.143,23.761],[68.149,23.695],[68.102,23.734],[68.099,23.709],[68.063,23.723],[68.054,23.744],[68.074,23.765],[68.082,23.806],[68.102,23.816],[68.059,23.862],[68.064,23.923],[68.014,23.939],[68.054,23.829],[68.014,23.769],[67.994,23.811],[67.951,23.809],[67.934,23.833],[67.91,23.836],[67.9,23.868],[67.869,23.85],[67.855,23.912],[67.832,23.81],[67.719,23.844],[67.741,23.823],[67.732,23.795],[67.638,23.802],[67.65,23.933],[67.637,23.874],[67.615,23.85],[67.589,23.867],[67.588,23.885],[67.575,23.872],[67.547,23.898],[67.53,23.891],[67.547,23.871],[67.479,23.892],[67.513,23.898],[67.541,23.939],[67.499,23.926],[67.506,23.974],[67.451,23.988],[67.478,24.032],[67.52,24.045],[67.533,24.07],[67.51,24.052],[67.354,24.071],[67.3,24.186],[67.279,24.281],[67.293,24.303],[67.286,24.33],[67.362,24.344],[67.272,24.369],[67.287,24.44],[67.259,24.419],[67.247,24.468],[67.211,24.508],[67.231,24.525],[67.195,24.547],[67.184,24.59],[67.253,24.59],[67.209,24.614],[67.16,24.612],[67.15,24.635],[67.176,24.689],[67.256,24.748],[67.233,24.771],[67.167,24.76],[67.14,24.803],[67.081,24.803],[67.083,24.774],[66.965,24.844],[66.965,24.81],[66.882,24.851],[66.654,24.839],[66.657,24.859],[66.704,24.892],[66.681,24.911],[66.681,24.949],[66.7,25.085],[66.737,25.181],[66.71,25.239],[66.548,25.366],[66.554,25.385],[66.579,25.379],[66.591,25.4],[66.587,25.426],[66.551,25.457],[66.531,25.518],[66.493,25.518],[66.437,25.598],[66.388,25.592],[66.373,25.604],[66.375,25.626],[66.339,25.608],[66.258,25.612],[66.204,25.593],[66.094,25.475],[66.213,25.491],[66.259,25.525],[66.258,25.543],[66.336,25.553],[66.423,25.481],[66.456,25.496],[66.492,25.481],[66.458,25.454],[66.512,25.414],[66.498,25.399],[66.36,25.465],[66.252,25.473],[66.159,25.447],[65.858,25.418],[65.652,25.344],[65.468,25.385],[65.401,25.367],[65.382,25.371],[65.395,25.392],[65.292,25.365],[65.26,25.38],[65.232,25.371],[65.188,25.311],[65.155,25.296],[64.921,25.327],[64.744,25.324],[64.696,25.298],[64.669,25.255],[64.669,25.207],[64.71,25.179],[64.655,25.166],[64.6,25.173],[64.628,25.228],[64.565,25.27],[64.518,25.276],[64.492,25.246],[64.439,25.235],[64.361,25.283],[64.266,25.299],[64.245,25.317],[64.094,25.336],[64.107,25.385],[64.084,25.404],[64.084,25.427],[64.141,25.429],[64.155,25.447],[64.045,25.45],[63.977,25.413],[63.997,25.42],[64.012,25.397],[64.049,25.416],[64.08,25.365],[64.06,25.345],[63.944,25.335],[63.738,25.385],[63.573,25.365],[63.496,25.291],[63.469,25.289],[63.519,25.221],[63.5,25.194],[63.411,25.222],[63.308,25.22],[63.144,25.261],[63.028,25.22],[62.771,25.262],[62.527,25.264],[62.477,25.259],[62.468,25.224],[62.489,25.214],[62.414,25.207],[62.343,25.155],[62.339,25.125],[62.387,25.102],[62.381,25.088],[62.256,25.099],[62.315,25.13],[62.297,25.185],[62.254,25.212],[62.145,25.218],[62.08,25.197],[62.059,25.162],[62.097,25.107],[61.881,25.103],[61.847,25.038],[61.79,25.018],[61.73,25.022],[61.729,25.083],[61.76,25.115],[61.783,25.188],[61.75,25.173],[61.694,25.201],[61.588,25.202],[61.62,25.285],[61.643,25.613],[61.673,25.658],[61.66,25.769],[61.681,25.795],[61.739,25.803],[61.755,25.82],[61.81,26.167],[61.833,26.225],[62.094,26.315],[62.124,26.374],[62.243,26.351],[62.265,26.361],[62.249,26.417],[62.298,26.474],[62.292,26.501],[62.356,26.537],[62.397,26.539],[62.418,26.562],[62.595,26.581],[62.641,26.605],[62.702,26.604],[62.754,26.644],[63.098,26.638],[63.141,26.625],[63.164,26.645],[63.174,26.685],[63.19,26.846],[63.262,26.872],[63.235,26.941],[63.231,27.066],[63.261,27.116],[63.32,27.117],[63.271,27.203],[63.177,27.258],[62.892,27.213],[62.829,27.234],[62.801,27.225],[62.742,27.267],[62.768,27.274],[62.779,27.3],[62.756,27.348],[62.815,27.495],[62.78,27.83],[62.736,27.995],[62.762,28.246],[62.739,28.258],[62.576,28.229],[62.492,28.301],[62.464,28.35],[62.363,28.419],[62.049,28.486],[61.893,28.543],[61.653,28.756],[61.567,28.871],[61.511,29.007],[61.468,29.042],[61.488,29.081],[61.461,29.094],[61.438,29.14],[61.398,29.159],[61.387,29.207],[61.333,29.275],[61.347,29.349],[61.337,29.374],[61.279,29.407],[60.844,29.858],[62.374,29.425],[62.478,29.408],[63.569,29.497],[63.972,29.43],[64.086,29.387],[64.113,29.396],[64.173,29.484],[64.478,29.57],[64.82,29.568],[65.036,29.54],[66.196,29.835],[66.275,29.885],[66.341,29.957],[66.219,30.058],[66.305,30.245],[66.322,30.437],[66.314,30.478],[66.265,30.558],[66.268,30.601],[66.366,30.923],[66.392,30.945],[66.55,30.977],[66.663,31.083],[66.697,31.196],[66.76,31.215],[66.838,31.277],[66.943,31.315],[67.017,31.309],[67.026,31.273],[67.015,31.245],[67.035,31.236],[67.137,31.241],[67.214,31.212],[67.346,31.208],[67.584,31.265],[67.693,31.325],[67.765,31.334],[67.77,31.395],[67.651,31.395],[67.611,31.411],[67.556,31.512],[67.569,31.53],[67.696,31.521],[67.781,31.564],[67.843,31.623],[67.966,31.638],[68.047,31.688],[68.139,31.825],[68.207,31.808],[68.255,31.766],[68.356,31.763],[68.498,31.725],[68.537,31.741],[68.55,31.754],[68.541,31.763],[68.44,31.767],[68.419,31.783],[68.505,31.823],[68.676,31.775],[68.695,31.756],[68.705,31.701],[68.804,31.603],[68.941,31.644],[68.977,31.641],[69.04,31.673],[69.114,31.738],[69.224,31.882],[69.299,31.938],[69.251,32.131],[69.268,32.301],[69.228,32.421],[69.233,32.463],[69.282,32.533],[69.361,32.568],[69.426,32.655],[69.415,32.726],[69.383,32.744],[69.376,32.772],[69.477,32.857],[69.487,32.886],[69.469,32.994],[69.488,33.028],[69.548,33.075],[69.668,33.077],[69.772,33.115],[69.839,33.087],[69.881,33.089],[69.956,33.128],[69.995,33.127],[70.048,33.194],[70.125,33.199],[70.294,33.319],[70.302,33.352],[70.286,33.383],[70.155,33.507],[70.174,33.632],[70.133,33.661],[70.118,33.717],[69.958,33.753],[69.885,33.889],[69.847,33.927],[69.841,33.942],[69.872,33.972],[69.873,34.017],[69.916,34.039],[70.003,34.044],[70.328,33.957],[70.522,33.939],[70.862,33.965],[70.884,34.007],[70.94,34.001],[71.063,34.054],[71.063,34.105],[71.108,34.165],[71.097,34.262],[71.126,34.332],[71.122,34.357],[71.051,34.39],[70.992,34.443],[70.961,34.488],[70.957,34.532],[70.986,34.556],[71.066,34.558],[71.081,34.673],[71.203,34.748],[71.289,34.875],[71.47,34.95],[71.511,35.009],[71.509,35.072],[71.604,35.138],[71.638,35.19],[71.53,35.301],[71.532,35.328],[71.611,35.395],[71.622,35.43],[71.588,35.471],[71.584,35.564],[71.513,35.596],[71.483,35.627],[71.52,35.684],[71.476,35.741],[71.464,35.795],[71.417,35.859],[71.371,35.885],[71.342,35.947],[71.257,35.972],[71.171,36.027],[71.166,36.046],[71.223,36.125],[71.302,36.163],[71.319,36.201],[71.382,36.219],[71.479,36.301],[71.558,36.328],[71.547,36.372],[71.61,36.458],[71.649,36.453],[71.736,36.396],[71.783,36.397],[71.794,36.408],[71.773,36.48],[71.875,36.499],[71.977,36.563],[72.039,36.58],[72.059,36.627],[72.172,36.654],[72.15,36.689],[72.17,36.711],[72.454,36.758],[72.565,36.821],[72.696,36.837],[72.868,36.83],[72.946,36.852],[72.991,36.842],[73.042,36.864],[73.192,36.877],[73.267,36.867],[73.332,36.882],[73.509,36.879],[73.64,36.897],[73.834,36.883],[73.947,36.831],[74.035,36.816],[74.094,36.831],[74.13,36.898],[74.236,36.902],[74.394,36.994],[74.436,37.003],[74.477,36.999],[74.521,36.958],[74.537,36.962],[74.542,37.022],[74.662,37.054],[74.719,37.016],[74.793,37.015],[74.825,36.994],[74.872,36.907],[74.925,36.971],[75.1,36.994],[75.195,36.949],[75.351,36.916],[75.394,36.864],[75.411,36.747],[75.432,36.723],[75.493,36.721],[75.508,36.748],[75.571,36.767],[75.729,36.723],[75.875,36.619],[75.981,36.445]]],[[[67.375,24.063],[67.39,24.049],[67.458,24.063],[67.485,24.049],[67.454,24.013],[67.427,24.008],[67.393,24.028],[67.375,24.063]]]]}},{"type":"Feature","properties":{"name":"Iran","blocKey":"iran","blocLabel":"Iran","color":"#b26a3d","certainty":"member","basis":"State"},"geometry":{"type":"MultiPolygon","coordinates":[[[[44.807,39.64],[44.872,39.625],[44.928,39.488],[44.962,39.454],[44.957,39.434],[45.006,39.418],[45.088,39.351],[45.136,39.278],[45.153,39.214],[45.311,39.201],[45.311,39.176],[45.348,39.164],[45.345,39.138],[45.396,39.073],[45.435,39.053],[45.425,39.026],[45.439,39.004],[45.531,38.969],[45.717,38.955],[46.126,38.863],[46.202,38.871],[46.291,38.914],[46.378,38.925],[46.514,38.882],[46.554,38.89],[46.599,38.92],[46.652,38.993],[46.745,39.04],[46.774,39.085],[46.866,39.165],[46.954,39.161],[47.02,39.19],[47.102,39.308],[47.291,39.38],[47.407,39.477],[47.541,39.515],[47.823,39.68],[47.923,39.684],[47.971,39.705],[48.289,39.445],[48.339,39.379],[48.154,39.319],[48.106,39.269],[48.104,39.235],[48.142,39.181],[48.271,39.108],[48.307,39.045],[48.294,39.005],[48.243,38.974],[48.059,38.948],[48.052,38.928],[47.991,38.891],[47.993,38.85],[48.078,38.781],[48.223,38.721],[48.228,38.662],[48.31,38.6],[48.415,38.618],[48.434,38.57],[48.608,38.396],[48.683,38.398],[48.778,38.445],[48.874,38.434],[48.875,38.243],[48.949,37.967],[48.945,37.903],[48.987,37.842],[48.983,37.816],[49.014,37.739],[49.132,37.623],[49.206,37.582],[49.442,37.495],[49.826,37.454],[49.934,37.474],[49.969,37.46],[49.935,37.454],[50.196,37.389],[50.227,37.365],[50.223,37.329],[50.245,37.279],[50.322,37.153],[50.479,37.035],[51.005,36.768],[51.089,36.737],[51.909,36.583],[52.094,36.603],[52.259,36.651],[52.779,36.74],[53.116,36.822],[53.448,36.882],[53.886,36.906],[53.958,36.92],[54.007,36.953],[54.004,36.915],[53.948,36.899],[53.818,36.875],[53.609,36.877],[53.664,36.863],[53.636,36.857],[53.701,36.817],[53.889,36.794],[54.014,36.821],[54.033,36.846],[54.034,36.949],[54.028,36.966],[53.994,36.979],[54.02,37.028],[53.98,37.094],[53.928,37.244],[53.914,37.343],[54.206,37.325],[54.262,37.355],[54.364,37.363],[54.533,37.441],[54.654,37.439],[54.788,37.525],[54.809,37.603],[54.787,37.652],[54.827,37.735],[55.007,37.843],[55.13,37.952],[55.22,37.97],[55.229,37.986],[55.307,38.009],[55.447,38.084],[55.709,38.119],[55.963,38.067],[56.121,38.086],[56.214,38.069],[56.3,38.08],[56.329,38.124],[56.297,38.166],[56.303,38.179],[56.436,38.255],[56.528,38.257],[56.585,38.235],[56.729,38.271],[56.812,38.229],[57.038,38.187],[57.175,38.278],[57.218,38.265],[57.344,38.081],[57.327,37.994],[57.352,37.968],[57.496,37.922],[57.691,37.92],[57.763,37.899],[57.8,37.868],[57.884,37.865],[58.041,37.806],[58.157,37.788],[58.181,37.775],[58.207,37.679],[58.358,37.633],[58.48,37.644],[58.53,37.7],[58.682,37.643],[58.78,37.66],[58.801,37.695],[59.035,37.625],[59.212,37.516],[59.312,37.53],[59.356,37.481],[59.362,37.439],[59.348,37.409],[59.37,37.319],[59.469,37.241],[59.462,37.208],[59.501,37.19],[59.556,37.198],[59.605,37.124],[59.653,37.15],[59.797,37.112],[59.9,37.051],[60.019,37.026],[60.133,36.873],[60.239,36.77],[60.309,36.652],[60.342,36.637],[61.075,36.648],[61.166,36.636],[61.188,36.565],[61.166,36.514],[61.174,36.487],[61.147,36.357],[61.154,36.315],[61.185,36.284],[61.225,36.124],[61.198,36.061],[61.174,36.048],[61.174,36.006],[61.13,35.971],[61.188,35.954],[61.241,35.894],[61.256,35.769],[61.232,35.672],[61.277,35.609],[61.29,35.548],[61.195,35.39],[61.187,35.3],[61.108,35.278],[61.112,35.202],[61.096,35.193],[61.14,35.14],[61.147,35.102],[61.116,35.06],[61.075,34.933],[61.065,34.815],[61.035,34.806],[61.01,34.761],[60.96,34.723],[60.948,34.638],[60.895,34.628],[60.838,34.571],[60.739,34.548],[60.7,34.516],[60.779,34.455],[60.89,34.319],[60.644,34.307],[60.651,34.285],[60.552,34.22],[60.493,34.139],[60.487,34.094],[60.528,33.841],[60.487,33.711],[60.512,33.638],[60.575,33.588],[60.656,33.56],[60.846,33.556],[60.895,33.541],[60.921,33.514],[60.832,33.484],[60.829,33.416],[60.757,33.366],[60.568,33.151],[60.563,33.058],[60.83,32.249],[60.815,32.088],[60.775,32.027],[60.793,32.011],[60.805,31.734],[60.793,31.66],[60.822,31.495],[61.687,31.373],[61.742,31.321],[61.743,31.24],[61.788,31.159],[61.826,31.015],[61.8,30.961],[61.802,30.847],[60.844,29.858],[61.279,29.407],[61.337,29.374],[61.347,29.349],[61.333,29.275],[61.387,29.207],[61.398,29.159],[61.438,29.14],[61.461,29.094],[61.488,29.081],[61.468,29.042],[61.511,29.007],[61.567,28.871],[61.653,28.756],[61.893,28.543],[62.049,28.486],[62.363,28.419],[62.464,28.35],[62.492,28.301],[62.576,28.229],[62.739,28.258],[62.762,28.246],[62.736,27.995],[62.78,27.83],[62.815,27.495],[62.756,27.348],[62.779,27.3],[62.768,27.274],[62.742,27.267],[62.801,27.225],[62.829,27.234],[62.892,27.213],[63.177,27.258],[63.271,27.203],[63.32,27.117],[63.261,27.116],[63.231,27.066],[63.235,26.941],[63.265,26.89],[63.247,26.86],[63.206,26.854],[63.182,26.83],[63.164,26.645],[63.141,26.625],[63.098,26.638],[62.754,26.644],[62.702,26.604],[62.641,26.605],[62.595,26.581],[62.418,26.562],[62.397,26.539],[62.356,26.537],[62.292,26.501],[62.298,26.474],[62.249,26.417],[62.265,26.361],[62.243,26.351],[62.124,26.374],[62.094,26.315],[61.833,26.225],[61.81,26.167],[61.755,25.82],[61.739,25.803],[61.681,25.795],[61.66,25.769],[61.676,25.693],[61.673,25.658],[61.643,25.613],[61.62,25.285],[61.588,25.202],[61.554,25.254],[61.537,25.22],[61.558,25.201],[61.504,25.209],[61.483,25.194],[61.524,25.173],[61.49,25.119],[61.421,25.097],[61.435,25.088],[61.412,25.059],[61.185,25.123],[61.17,25.164],[61.031,25.21],[60.633,25.275],[60.617,25.283],[60.632,25.296],[60.608,25.328],[60.602,25.406],[60.55,25.447],[60.446,25.428],[60.395,25.378],[60.402,25.345],[60.438,25.334],[60.467,25.29],[60.363,25.331],[60.319,25.33],[60.29,25.351],[60.304,25.371],[60.289,25.377],[60.202,25.371],[60.193,25.356],[60.216,25.338],[60.209,25.32],[60.117,25.34],[60.082,25.366],[59.941,25.355],[59.904,25.33],[59.775,25.39],[59.614,25.384],[59.538,25.4],[59.454,25.462],[59.195,25.423],[59.117,25.394],[59.094,25.406],[59.044,25.4],[58.994,25.42],[58.924,25.513],[58.84,25.533],[58.825,25.56],[58.546,25.594],[58.431,25.588],[58.412,25.596],[58.419,25.612],[58.17,25.544],[58.073,25.564],[58.046,25.575],[57.963,25.693],[57.884,25.692],[57.772,25.636],[57.783,25.7],[57.756,25.743],[57.521,25.744],[57.46,25.769],[57.312,25.784],[57.254,25.959],[57.22,25.995],[57.199,25.995],[57.167,26.083],[57.171,26.116],[57.213,26.166],[57.133,26.264],[57.118,26.364],[57.08,26.415],[57.09,26.619],[57.025,26.851],[56.965,26.911],[56.966,26.927],[56.926,26.955],[56.973,26.969],[56.973,27.003],[56.932,26.989],[56.891,27.017],[56.865,27.012],[56.844,27.04],[56.885,27.078],[56.831,27.096],[56.809,27.14],[56.757,27.125],[56.716,27.153],[56.583,27.153],[56.353,27.202],[56.124,27.161],[56.094,27.126],[55.939,27.027],[55.764,26.996],[55.666,26.995],[55.554,26.9],[55.582,26.914],[55.58,26.859],[55.522,26.785],[55.442,26.76],[55.271,26.793],[55.233,26.776],[55.206,26.726],[55.103,26.701],[54.931,26.573],[54.791,26.496],[54.75,26.509],[54.62,26.508],[54.561,26.585],[54.426,26.589],[54.389,26.605],[54.338,26.693],[54.308,26.715],[54.15,26.708],[54.016,26.749],[53.843,26.702],[53.716,26.709],[53.492,26.854],[53.444,26.976],[53.029,27.104],[52.992,27.147],[52.933,27.16],[52.915,27.192],[52.848,27.215],[52.732,27.301],[52.601,27.353],[52.579,27.393],[52.605,27.412],[52.667,27.415],[52.679,27.425],[52.67,27.449],[52.598,27.486],[52.568,27.541],[52.46,27.633],[52.245,27.681],[52.089,27.795],[52.011,27.833],[51.894,27.831],[51.86,27.846],[51.683,27.831],[51.585,27.849],[51.57,27.878],[51.496,27.893],[51.428,27.961],[51.42,27.933],[51.4,27.932],[51.345,28.053],[51.27,28.14],[51.285,28.241],[51.142,28.401],[51.081,28.534],[51.059,28.736],[51.011,28.799],[50.979,28.817],[50.876,28.832],[50.805,28.934],[50.803,28.986],[50.823,28.997],[50.889,28.941],[50.899,28.949],[50.895,28.976],[50.929,29.01],[50.93,29.055],[50.92,29.069],[50.902,29.065],[50.874,29.113],[50.851,29.105],[50.84,29.141],[50.738,29.14],[50.694,29.123],[50.644,29.143],[50.636,29.208],[50.667,29.257],[50.683,29.243],[50.689,29.291],[50.661,29.319],[50.655,29.449],[50.623,29.493],[50.607,29.499],[50.607,29.47],[50.456,29.634],[50.397,29.655],[50.244,29.867],[50.145,29.938],[50.134,29.984],[50.153,29.991],[50.134,30.004],[50.145,30.038],[50.122,30.095],[50.128,30.121],[50.073,30.196],[49.988,30.22],[49.915,30.204],[49.601,30.03],[49.532,30.023],[49.504,30.059],[49.501,30.12],[49.48,30.156],[49.35,30.175],[49.245,30.156],[49.237,30.206],[49.216,30.224],[49.221,30.265],[49.209,30.271],[49.193,30.238],[49.161,30.224],[49.124,30.256],[49.017,30.298],[48.98,30.362],[48.921,30.381],[48.949,30.401],[49.062,30.408],[49.176,30.373],[49.203,30.347],[49.264,30.45],[49.228,30.454],[49.211,30.506],[49.168,30.477],[49.167,30.509],[49.134,30.497],[49.11,30.518],[48.981,30.516],[48.946,30.48],[49.004,30.464],[49.037,30.433],[49.017,30.415],[48.935,30.419],[48.862,30.346],[48.874,30.337],[48.86,30.316],[48.867,30.295],[48.921,30.25],[48.936,30.21],[48.935,30.08],[48.915,30.042],[48.877,30.024],[48.791,30.024],[48.702,30.032],[48.643,30.055],[48.659,29.984],[48.611,29.957],[48.531,29.961],[48.464,29.989],[48.383,30.138],[48.411,30.192],[48.397,30.221],[48.296,30.32],[48.2,30.324],[48.17,30.407],[48.141,30.442],[48.014,30.464],[48.012,30.989],[47.673,30.995],[47.679,31.408],[47.831,31.762],[47.834,31.806],[47.765,31.864],[47.668,32.012],[47.618,32.042],[47.578,32.106],[47.491,32.149],[47.509,32.214],[47.402,32.324],[47.411,32.395],[47.343,32.459],[47.265,32.485],[47.153,32.455],[47.091,32.475],[46.716,32.756],[46.479,32.892],[46.273,32.959],[46.097,32.954],[46.076,32.994],[46.119,33.031],[46.12,33.062],[46.043,33.083],[46.03,33.106],[46.105,33.118],[46.167,33.168],[46.155,33.26],[46.036,33.368],[46.019,33.438],[45.974,33.491],[45.899,33.476],[45.853,33.494],[45.928,33.551],[45.882,33.6],[45.886,33.631],[45.816,33.626],[45.735,33.583],[45.721,33.641],[45.645,33.698],[45.617,33.769],[45.575,33.804],[45.486,33.939],[45.424,33.939],[45.38,33.974],[45.42,33.994],[45.455,34.07],[45.545,34.139],[45.527,34.179],[45.561,34.265],[45.558,34.312],[45.522,34.343],[45.479,34.329],[45.461,34.34],[45.417,34.444],[45.479,34.467],[45.503,34.494],[45.501,34.592],[45.702,34.551],[45.709,34.579],[45.688,34.653],[45.627,34.721],[45.663,34.763],[45.667,34.807],[45.745,34.841],[45.755,34.91],[45.835,34.89],[45.85,34.907],[45.869,34.968],[45.857,35.021],[45.899,35.047],[45.913,35.087],[46.009,35.061],[46.151,35.112],[46.13,35.131],[46.169,35.216],[46.101,35.234],[46.127,35.289],[46.12,35.319],[46.041,35.382],[45.964,35.494],[45.985,35.531],[45.959,35.579],[45.999,35.572],[46.004,35.674],[46.037,35.692],[46.107,35.69],[46.178,35.715],[46.238,35.716],[46.313,35.772],[46.327,35.804],[46.281,35.828],[46.164,35.798],[46.129,35.816],[46.115,35.846],[46.06,35.857],[46.005,35.838],[45.878,35.835],[45.835,35.811],[45.749,35.811],[45.719,35.828],[45.647,35.933],[45.54,35.994],[45.479,36.012],[45.36,35.977],[45.32,35.994],[45.32,36.031],[45.348,36.088],[45.305,36.14],[45.297,36.227],[45.259,36.262],[45.283,36.275],[45.257,36.312],[45.239,36.403],[45.196,36.422],[45.111,36.403],[45.072,36.423],[45.038,36.494],[44.991,36.534],[45.044,36.649],[45.035,36.69],[44.996,36.742],[44.923,36.776],[44.851,36.781],[44.823,36.809],[44.883,36.887],[44.869,36.967],[44.887,37.016],[44.841,37.047],[44.802,37.044],[44.753,37.103],[44.772,37.161],[44.754,37.215],[44.798,37.26],[44.802,37.293],[44.721,37.343],[44.698,37.38],[44.662,37.376],[44.638,37.413],[44.572,37.431],[44.572,37.539],[44.587,37.584],[44.541,37.633],[44.545,37.663],[44.596,37.716],[44.506,37.779],[44.436,37.768],[44.433,37.806],[44.404,37.81],[44.367,37.86],[44.319,37.877],[44.22,37.875],[44.202,37.897],[44.225,37.929],[44.228,37.981],[44.296,38.079],[44.334,38.101],[44.327,38.128],[44.361,38.148],[44.372,38.25],[44.437,38.297],[44.459,38.338],[44.409,38.382],[44.363,38.365],[44.29,38.382],[44.297,38.622],[44.283,38.645],[44.244,38.659],[44.26,38.679],[44.249,38.722],[44.28,38.814],[44.275,38.844],[44.206,38.876],[44.152,38.965],[44.139,38.994],[44.179,39.035],[44.17,39.074],[44.195,39.121],[44.187,39.145],[44.078,39.2],[44.069,39.287],[44.015,39.374],[44.061,39.4],[44.177,39.412],[44.295,39.381],[44.388,39.414],[44.405,39.434],[44.414,39.561],[44.458,39.639],[44.459,39.698],[44.566,39.766],[44.59,39.772],[44.647,39.72],[44.807,39.64]]],[[[54.526,26.31],[54.547,26.29],[54.521,26.251],[54.492,26.266],[54.488,26.298],[54.507,26.321],[54.526,26.31]]],[[[54.037,26.488],[53.955,26.493],[53.903,26.536],[53.945,26.565],[54.019,26.556],[54.05,26.518],[54.037,26.488]]],[[[53.317,26.8],[53.223,26.8],[53.149,26.848],[53.178,26.857],[53.337,26.829],[53.382,26.803],[53.317,26.8]]],[[[56.322,26.834],[56.341,26.879],[56.404,26.893],[56.409,26.862],[56.379,26.839],[56.322,26.834]]],[[[56.212,27.003],[56.258,26.989],[56.287,26.955],[56.194,26.925],[56.081,26.785],[55.947,26.696],[55.877,26.743],[55.773,26.688],[55.686,26.69],[55.503,26.595],[55.291,26.548],[55.274,26.65],[55.285,26.66],[55.352,26.647],[55.574,26.721],[55.64,26.761],[55.774,26.797],[55.781,26.89],[55.733,26.941],[55.758,26.954],[55.898,26.907],[56.041,26.976],[56.212,27.003]]],[[[56.473,27.106],[56.505,27.089],[56.505,27.062],[56.466,27.044],[56.435,27.055],[56.437,27.08],[56.473,27.106]]],[[[50.306,29.271],[50.335,29.259],[50.326,29.209],[50.307,29.215],[50.283,29.269],[50.306,29.271]]],[[[54.547,25.927],[54.553,25.9],[54.514,25.903],[54.51,25.914],[54.547,25.927]]],[[[55.894,26.679],[55.904,26.645],[55.89,26.624],[55.853,26.621],[55.868,26.666],[55.894,26.679]]],[[[53.639,26.689],[53.659,26.669],[53.646,26.657],[53.601,26.68],[53.639,26.689]]],[[[55.049,25.886],[55.054,25.865],[55.018,25.86],[55.012,25.882],[55.049,25.886]]]]}},{"type":"Feature","properties":{"name":"Iraq","blocKey":"iran","blocLabel":"Iran","color":"#b26a3d","certainty":"contested","basis":"Iran-aligned armed factions; state alignment contested"},"geometry":{"type":"Polygon","coordinates":[[[44.766,37.142],[44.753,37.113],[44.767,37.079],[44.802,37.044],[44.841,37.047],[44.887,37.016],[44.869,36.967],[44.883,36.887],[44.834,36.834],[44.831,36.792],[44.923,36.776],[44.996,36.742],[45.046,36.668],[45.013,36.558],[44.991,36.534],[45.038,36.494],[45.084,36.413],[45.111,36.403],[45.221,36.421],[45.239,36.403],[45.257,36.312],[45.283,36.275],[45.259,36.262],[45.297,36.227],[45.305,36.14],[45.348,36.088],[45.32,36.031],[45.32,35.994],[45.36,35.977],[45.479,36.012],[45.54,35.994],[45.647,35.933],[45.719,35.828],[45.749,35.811],[45.835,35.811],[45.878,35.835],[46.005,35.838],[46.06,35.857],[46.115,35.846],[46.129,35.816],[46.164,35.798],[46.281,35.828],[46.327,35.804],[46.313,35.772],[46.238,35.716],[46.178,35.715],[46.107,35.69],[46.037,35.692],[46.004,35.674],[45.999,35.572],[45.959,35.579],[45.985,35.531],[45.964,35.494],[46.041,35.382],[46.12,35.319],[46.127,35.289],[46.101,35.234],[46.169,35.216],[46.13,35.131],[46.151,35.112],[46.009,35.061],[45.913,35.087],[45.899,35.047],[45.857,35.021],[45.869,34.968],[45.85,34.907],[45.835,34.89],[45.755,34.91],[45.745,34.841],[45.667,34.807],[45.663,34.763],[45.627,34.721],[45.688,34.653],[45.709,34.579],[45.702,34.551],[45.501,34.592],[45.503,34.494],[45.479,34.467],[45.417,34.444],[45.461,34.34],[45.479,34.329],[45.522,34.343],[45.558,34.312],[45.561,34.265],[45.527,34.179],[45.545,34.139],[45.455,34.07],[45.42,33.994],[45.38,33.974],[45.424,33.939],[45.486,33.939],[45.575,33.804],[45.617,33.769],[45.645,33.698],[45.721,33.641],[45.735,33.583],[45.816,33.626],[45.886,33.631],[45.882,33.6],[45.928,33.551],[45.853,33.494],[45.899,33.476],[45.974,33.491],[46.019,33.438],[46.036,33.368],[46.155,33.26],[46.167,33.168],[46.105,33.118],[46.03,33.106],[46.043,33.083],[46.12,33.062],[46.119,33.031],[46.076,32.994],[46.097,32.954],[46.273,32.959],[46.479,32.892],[46.716,32.756],[47.091,32.475],[47.153,32.455],[47.265,32.485],[47.343,32.459],[47.411,32.395],[47.402,32.324],[47.509,32.214],[47.491,32.149],[47.578,32.106],[47.618,32.042],[47.668,32.012],[47.765,31.864],[47.834,31.806],[47.831,31.762],[47.679,31.408],[47.673,30.995],[48.012,30.989],[48.014,30.464],[48.131,30.447],[48.17,30.407],[48.2,30.324],[48.306,30.313],[48.409,30.202],[48.381,30.145],[48.424,30.084],[48.453,30.001],[48.559,29.947],[48.521,29.929],[48.412,29.938],[48.209,30.024],[48.119,30.045],[48.038,30.037],[47.969,30.004],[47.952,30.088],[47.935,30.107],[47.948,29.994],[47.731,30.089],[47.674,30.098],[47.358,30.092],[47.197,30.034],[47.145,30.003],[47.11,29.961],[46.989,29.713],[46.977,29.658],[46.853,29.445],[46.712,29.271],[46.532,29.096],[46.357,29.063],[44.692,29.202],[42.859,30.495],[42.075,31.08],[40.424,31.921],[40.029,31.994],[39.146,32.118],[39.292,32.245],[39.256,32.343],[39.236,32.353],[39.046,32.308],[39.029,32.328],[38.978,32.475],[39.057,32.497],[38.775,33.372],[40.69,34.331],[40.965,34.402],[41.204,34.793],[41.192,35.182],[41.201,35.243],[41.243,35.367],[41.261,35.494],[41.342,35.594],[41.364,35.655],[41.355,35.826],[41.237,36.06],[41.277,36.355],[41.385,36.516],[41.79,36.589],[41.844,36.618],[42.377,37.062],[42.357,37.11],[42.561,37.147],[42.716,37.355],[42.792,37.374],[42.814,37.347],[42.937,37.32],[43.115,37.371],[43.27,37.309],[43.336,37.32],[43.48,37.243],[43.53,37.254],[43.594,37.229],[43.747,37.231],[43.809,37.2],[43.894,37.225],[43.99,37.313],[44.088,37.311],[44.184,37.279],[44.235,37.237],[44.248,37.17],[44.189,37.129],[44.18,37.088],[44.234,36.984],[44.285,36.969],[44.307,36.977],[44.343,37.042],[44.454,37.076],[44.61,37.178],[44.734,37.167],[44.766,37.142]]]}},{"type":"Feature","properties":{"name":"Lebanon","blocKey":"iran","blocLabel":"Iran","color":"#b26a3d","certainty":"contested","basis":"Hezbollah influence; state alignment contested"},"geometry":{"type":"Polygon","coordinates":[[[35.105,33.089],[35.106,33.112],[35.148,33.14],[35.162,33.177],[35.175,33.17],[35.205,33.225],[35.209,33.255],[35.188,33.28],[35.225,33.312],[35.271,33.458],[35.349,33.514],[35.394,33.65],[35.438,33.711],[35.481,33.824],[35.47,33.902],[35.572,33.91],[35.614,33.993],[35.641,33.999],[35.627,34.044],[35.648,34.119],[35.627,34.201],[35.648,34.222],[35.665,34.311],[35.689,34.328],[35.706,34.317],[35.751,34.39],[35.806,34.415],[35.824,34.435],[35.805,34.465],[35.903,34.478],[35.983,34.539],[35.99,34.6],[35.97,34.65],[36.038,34.628],[36.262,34.627],[36.309,34.688],[36.368,34.629],[36.44,34.629],[36.436,34.598],[36.389,34.596],[36.384,34.554],[36.32,34.514],[36.335,34.493],[36.433,34.494],[36.45,34.465],[36.525,34.423],[36.519,34.354],[36.582,34.3],[36.563,34.263],[36.604,34.199],[36.488,34.089],[36.475,34.054],[36.391,34.045],[36.289,33.947],[36.267,33.91],[36.275,33.897],[36.368,33.858],[36.37,33.837],[36.338,33.821],[36.232,33.853],[36.166,33.83],[36.138,33.851],[36.05,33.816],[35.948,33.709],[35.947,33.673],[35.925,33.662],[35.922,33.64],[36.03,33.598],[36.035,33.568],[35.999,33.541],[35.933,33.528],[35.919,33.462],[35.821,33.407],[35.769,33.343],[35.699,33.323],[35.652,33.277],[35.62,33.27],[35.604,33.24],[35.549,33.281],[35.52,33.222],[35.512,33.147],[35.48,33.087],[35.345,33.056],[35.284,33.101],[35.185,33.084],[35.105,33.089]]]}},{"type":"Feature","properties":{"name":"Yemen","blocKey":"iran","blocLabel":"Iran","color":"#b26a3d","certainty":"contested","basis":"Houthi control of the north; contested"},"geometry":{"type":"MultiPolygon","coordinates":[[[[51.979,18.996],[52.721,17.298],[52.802,17.267],[53.09,16.642],[53.022,16.619],[52.985,16.628],[52.851,16.556],[52.533,16.447],[52.293,16.264],[52.221,16.161],[52.224,16.114],[52.156,15.984],[52.187,15.919],[52.175,15.878],[52.224,15.847],[52.221,15.717],[52.245,15.658],[52.228,15.616],[52.047,15.57],[51.913,15.515],[51.874,15.492],[51.869,15.452],[51.829,15.469],[51.68,15.403],[51.662,15.377],[51.676,15.34],[51.531,15.317],[51.474,15.271],[51.368,15.23],[51.342,15.238],[51.269,15.202],[50.661,15.058],[50.554,15.049],[50.459,15.01],[50.358,14.933],[50.302,14.917],[50.18,14.843],[50.146,14.85],[50.042,14.818],[50.03,14.85],[49.942,14.839],[49.578,14.737],[49.46,14.674],[49.372,14.65],[49.19,14.549],[49.182,14.517],[49.137,14.533],[49.093,14.52],[49.01,14.401],[49.004,14.325],[48.887,14.25],[48.853,14.167],[48.798,14.14],[48.738,14.068],[48.696,14.044],[48.565,14.046],[48.469,13.989],[48.45,14.011],[48.338,14.016],[48.346,14.003],[48.189,13.969],[48.194,13.993],[48.14,14.031],[48.017,14.057],[47.931,14.031],[47.867,13.962],[47.821,13.938],[47.646,13.873],[47.398,13.655],[47.167,13.586],[46.912,13.533],[46.824,13.476],[46.701,13.43],[46.605,13.441],[46.52,13.413],[46.313,13.414],[46.235,13.436],[46.111,13.407],[45.815,13.38],[45.666,13.342],[45.494,13.195],[45.481,13.158],[45.403,13.07],[45.194,13.013],[45.118,12.962],[45.059,12.827],[45.059,12.762],[45.018,12.76],[44.979,12.782],[44.981,12.797],[45.035,12.804],[45.042,12.821],[45.015,12.859],[44.998,12.831],[44.945,12.834],[44.917,12.799],[44.872,12.804],[44.872,12.77],[44.921,12.771],[44.913,12.748],[44.881,12.73],[44.785,12.772],[44.728,12.742],[44.719,12.78],[44.694,12.803],[44.611,12.82],[44.543,12.797],[44.416,12.67],[44.407,12.685],[44.191,12.619],[44.138,12.639],[44.19,12.632],[44.191,12.66],[44.153,12.656],[44.062,12.612],[43.946,12.598],[43.895,12.653],[43.601,12.756],[43.526,12.69],[43.468,12.684],[43.481,12.773],[43.473,12.847],[43.401,12.943],[43.386,13.007],[43.342,13.063],[43.309,13.139],[43.249,13.213],[43.226,13.284],[43.248,13.349],[43.254,13.527],[43.295,13.586],[43.281,13.722],[43.244,13.794],[43.233,13.876],[43.162,13.954],[43.096,14.084],[42.987,14.489],[42.959,14.513],[42.966,14.53],[42.984,14.52],[43.021,14.442],[43.014,14.497],[43.029,14.538],[42.987,14.634],[43,14.663],[42.962,14.709],[42.942,14.789],[42.884,14.884],[42.891,14.914],[42.898,14.862],[42.946,14.811],[42.952,14.88],[42.937,14.948],[42.88,15.025],[42.882,15.102],[42.864,15.136],[42.733,15.209],[42.691,15.214],[42.671,15.185],[42.638,15.191],[42.61,15.244],[42.683,15.246],[42.692,15.271],[42.678,15.308],[42.712,15.366],[42.699,15.312],[42.774,15.26],[42.779,15.222],[42.795,15.209],[42.807,15.344],[42.777,15.422],[42.774,15.491],[42.719,15.57],[42.733,15.592],[42.708,15.628],[42.714,15.695],[42.692,15.702],[42.742,15.753],[42.752,15.816],[42.82,15.875],[42.835,15.915],[42.84,16.098],[42.789,16.371],[42.898,16.419],[42.907,16.479],[42.971,16.496],[43.036,16.536],[43.085,16.673],[43.18,16.665],[43.169,16.737],[43.209,16.773],[43.212,16.797],[43.146,16.834],[43.113,16.91],[43.136,17.01],[43.118,17.086],[43.156,17.21],[43.249,17.252],[43.242,17.293],[43.165,17.326],[43.303,17.459],[43.413,17.52],[43.503,17.513],[43.62,17.459],[43.731,17.352],[43.887,17.354],[43.894,17.312],[43.915,17.302],[43.939,17.305],[44.004,17.368],[44.085,17.343],[44.149,17.405],[44.212,17.391],[44.404,17.419],[44.562,17.404],[44.646,17.432],[45.165,17.428],[45.222,17.417],[45.43,17.312],[46.323,17.224],[46.71,17.275],[46.747,17.255],[46.97,16.957],[47.161,16.947],[47.428,17.092],[47.458,17.131],[47.589,17.463],[48.162,18.149],[49.036,18.58],[49.129,18.612],[51.979,18.996]]],[[[53.248,12.121],[53.287,12.127],[53.31,12.111],[53.248,12.121]]],[[[53.053,12.175],[53.083,12.165],[53.086,12.134],[53.072,12.13],[52.985,12.163],[53.004,12.177],[53.053,12.175]]],[[[52.289,12.201],[52.319,12.188],[52.39,12.197],[52.371,12.172],[52.388,12.149],[52.24,12.157],[52.224,12.18],[52.18,12.173],[52.162,12.197],[52.112,12.199],[52.064,12.235],[52.118,12.242],[52.2,12.206],[52.289,12.201]]],[[[43.429,12.674],[43.449,12.653],[43.436,12.632],[43.39,12.666],[43.429,12.674]]],[[[54.471,12.544],[54.516,12.558],[54.54,12.55],[54.457,12.519],[54.445,12.485],[54.328,12.443],[54.246,12.434],[54.219,12.399],[54.14,12.351],[54.048,12.353],[54.008,12.33],[53.97,12.342],[53.731,12.3],[53.572,12.335],[53.506,12.416],[53.307,12.543],[53.363,12.545],[53.389,12.561],[53.403,12.598],[53.396,12.656],[53.47,12.671],[53.5,12.712],[53.519,12.714],[53.655,12.705],[53.763,12.62],[53.846,12.599],[53.876,12.647],[54.008,12.646],[54.119,12.701],[54.168,12.665],[54.195,12.675],[54.219,12.653],[54.26,12.648],[54.471,12.544]]],[[[42.719,13.743],[42.783,13.78],[42.792,13.751],[42.744,13.688],[42.688,13.664],[42.719,13.743]]],[[[42.76,14.065],[42.768,14.072],[42.802,14.023],[42.782,13.92],[42.754,13.921],[42.768,13.949],[42.722,13.969],[42.692,14.013],[42.76,14.065]]],[[[42.636,15.446],[42.582,15.392],[42.619,15.4],[42.628,15.386],[42.614,15.308],[42.568,15.269],[42.546,15.294],[42.559,15.393],[42.602,15.446],[42.624,15.457],[42.636,15.446]]]]}}]}