{"type":"FeatureCollection","features":[{"type":"Feature","properties":{"name":"Nigeria","blocKey":"ecowas","blocLabel":"ECOWAS","color":"#7d8a3c","certainty":"member","basis":"ECOWAS member"},"geometry":{"type":"MultiPolygon","coordinates":[[[[3.596,11.696],[3.648,11.726],[3.667,11.76],[3.613,11.839],[3.604,11.906],[3.654,11.987],[3.624,12.094],[3.651,12.269],[3.642,12.518],[3.929,12.75],[4.089,12.996],[4.124,13.234],[4.126,13.473],[4.248,13.494],[4.406,13.641],[4.507,13.695],[4.857,13.774],[4.925,13.733],[5.084,13.748],[5.228,13.741],[5.304,13.774],[5.346,13.842],[5.374,13.855],[5.522,13.88],[6.142,13.641],[6.23,13.679],[6.302,13.664],[6.369,13.626],[6.673,13.321],[6.779,13.13],[6.838,13.063],[6.937,12.995],[7.069,12.996],[7.198,13.117],[7.325,13.103],[7.392,13.113],[7.756,13.327],[7.824,13.345],[8.105,13.3],[8.201,13.226],[8.26,13.205],[8.405,13.071],[8.483,13.082],[8.534,13.065],[8.597,13.011],[8.643,12.944],[8.679,12.924],[8.943,12.847],[9.269,12.81],[9.378,12.826],[9.59,12.801],[9.641,12.823],[9.819,13.029],[9.892,13.076],[9.93,13.146],[10.12,13.25],[10.675,13.375],[11.44,13.364],[11.742,13.289],[11.853,13.245],[12.058,13.117],[12.116,13.103],[12.201,13.125],[12.263,13.102],[12.269,13.086],[12.301,13.098],[12.326,13.079],[12.473,13.064],[12.491,13.083],[12.5,13.136],[12.548,13.165],[12.554,13.188],[12.538,13.193],[12.561,13.243],[12.62,13.281],[12.63,13.31],[12.674,13.284],[12.69,13.312],[12.741,13.335],[12.777,13.387],[12.805,13.373],[12.795,13.396],[12.829,13.407],[12.87,13.461],[12.842,13.489],[12.871,13.479],[12.884,13.496],[12.939,13.495],[13.055,13.548],[13.082,13.551],[13.088,13.531],[13.124,13.537],[13.124,13.523],[13.144,13.551],[13.15,13.523],[13.228,13.548],[13.246,13.571],[13.23,13.578],[13.257,13.594],[13.259,13.629],[13.33,13.709],[13.607,13.704],[14.065,13.078],[14.177,12.546],[14.189,12.37],[14.487,12.338],[14.514,12.324],[14.514,12.289],[14.562,12.256],[14.548,12.242],[14.604,12.204],[14.611,12.184],[14.652,12.194],[14.67,12.167],[14.637,12.124],[14.622,12.042],[14.604,12.03],[14.627,11.95],[14.591,11.783],[14.542,11.71],[14.621,11.63],[14.628,11.584],[14.606,11.515],[14.446,11.412],[14.368,11.383],[14.279,11.302],[14.232,11.29],[14.165,11.238],[14.123,11.236],[13.982,11.276],[13.873,11.167],[13.82,11.069],[13.755,11.017],[13.744,10.93],[13.539,10.621],[13.445,10.245],[13.453,10.201],[13.435,10.153],[13.36,10.101],[13.248,10.079],[13.23,10.045],[13.246,9.973],[13.213,9.87],[13.263,9.802],[13.195,9.542],[12.982,9.475],[12.929,9.416],[12.855,9.378],[12.848,9.36],[12.882,9.352],[12.891,9.332],[12.898,9.262],[12.822,9.097],[12.828,9.02],[12.806,8.832],[12.773,8.759],[12.709,8.751],[12.66,8.659],[12.558,8.606],[12.483,8.623],[12.424,8.6],[12.369,8.61],[12.404,8.497],[12.331,8.424],[12.272,8.428],[12.227,8.386],[12.237,8.197],[12.183,8.093],[12.192,7.961],[12.019,7.719],[12.009,7.676],[12.021,7.576],[11.737,7.263],[11.78,7.241],[11.869,7.127],[11.881,7.102],[11.872,7.079],[11.809,7.072],[11.752,7.024],[11.741,6.998],[11.692,6.992],[11.562,6.876],[11.538,6.824],[11.567,6.784],[11.569,6.739],[11.533,6.645],[11.51,6.612],[11.417,6.572],[11.389,6.474],[11.37,6.456],[11.256,6.43],[11.114,6.434],[11.077,6.497],[11.056,6.7],[11.037,6.741],[11.003,6.767],[10.909,6.784],[10.877,6.816],[10.832,6.945],[10.621,7.044],[10.603,7.058],[10.597,7.107],[10.579,7.131],[10.552,7.066],[10.537,6.952],[10.501,6.913],[10.496,6.875],[10.211,6.879],[10.179,6.915],[10.165,6.989],[10.143,7.008],[9.875,6.788],[9.851,6.778],[9.789,6.795],[9.77,6.774],[9.693,6.531],[9.603,6.515],[9.549,6.443],[9.453,6.398],[9.423,6.339],[9.341,6.314],[9.273,6.203],[9.136,6.093],[8.994,5.944],[8.983,5.896],[8.922,5.904],[8.856,5.847],[8.845,5.831],[8.862,5.752],[8.819,5.703],[8.904,5.595],[8.844,5.492],[8.85,5.432],[8.815,5.343],[8.826,5.295],[8.799,5.16],[8.748,5.124],[8.638,4.917],[8.602,4.881],[8.612,4.832],[8.549,4.804],[8.53,4.709],[8.469,4.712],[8.48,4.753],[8.439,4.738],[8.409,4.749],[8.422,4.847],[8.387,4.796],[8.358,4.797],[8.332,4.821],[8.34,4.834],[8.312,4.847],[8.308,4.872],[8.256,4.907],[8.232,4.954],[8.182,4.991],[8.27,4.869],[8.274,4.845],[8.257,4.834],[8.332,4.718],[8.323,4.666],[8.354,4.649],[8.356,4.626],[8.289,4.549],[8.032,4.559],[7.979,4.539],[7.742,4.526],[7.723,4.512],[7.757,4.505],[7.703,4.498],[7.647,4.519],[7.558,4.525],[7.572,4.539],[7.539,4.542],[7.558,4.58],[7.53,4.639],[7.545,4.711],[7.517,4.68],[7.514,4.626],[7.531,4.601],[7.502,4.573],[7.463,4.574],[7.454,4.553],[7.432,4.555],[7.347,4.58],[7.312,4.608],[7.281,4.601],[7.264,4.58],[7.271,4.56],[7.333,4.529],[7.326,4.512],[7.281,4.505],[7.19,4.612],[7.179,4.669],[7.133,4.663],[7.099,4.697],[7.072,4.758],[7.06,4.721],[7.079,4.711],[7.098,4.662],[7.147,4.64],[7.17,4.606],[7.173,4.573],[7.147,4.56],[7.185,4.519],[7.151,4.471],[7.113,4.471],[7.113,4.451],[7.081,4.47],[7.079,4.505],[7.063,4.476],[7.079,4.443],[7.044,4.437],[7.002,4.58],[7.018,4.596],[7.023,4.649],[7.044,4.643],[7.004,4.718],[6.979,4.692],[6.963,4.731],[6.956,4.684],[6.989,4.608],[6.949,4.615],[6.901,4.684],[6.934,4.612],[6.928,4.574],[6.957,4.594],[6.983,4.577],[6.976,4.484],[7.024,4.398],[7.007,4.375],[6.964,4.39],[6.969,4.375],[6.869,4.4],[6.866,4.451],[6.834,4.486],[6.819,4.543],[6.845,4.629],[6.803,4.65],[6.77,4.745],[6.785,4.817],[6.764,4.807],[6.75,4.834],[6.716,4.834],[6.727,4.785],[6.756,4.754],[6.772,4.663],[6.825,4.601],[6.796,4.56],[6.838,4.393],[6.871,4.361],[6.775,4.339],[6.716,4.355],[6.722,4.44],[6.709,4.492],[6.736,4.608],[6.702,4.543],[6.695,4.423],[6.675,4.533],[6.654,4.512],[6.695,4.359],[6.688,4.337],[6.613,4.337],[6.596,4.482],[6.581,4.508],[6.55,4.505],[6.578,4.483],[6.588,4.448],[6.57,4.335],[6.52,4.323],[6.462,4.329],[6.434,4.347],[6.408,4.341],[6.415,4.322],[6.399,4.316],[6.271,4.293],[6.247,4.321],[6.333,4.437],[6.297,4.437],[6.263,4.396],[6.236,4.498],[6.249,4.41],[6.202,4.443],[6.23,4.388],[6.195,4.3],[6.223,4.3],[6.189,4.281],[6.126,4.286],[6.113,4.272],[6.084,4.302],[6.105,4.375],[6.085,4.368],[6.089,4.411],[6.055,4.42],[6.04,4.406],[6.062,4.295],[5.997,4.319],[5.989,4.416],[5.975,4.382],[5.955,4.396],[5.973,4.345],[5.961,4.334],[5.89,4.369],[5.856,4.412],[5.866,4.437],[5.839,4.416],[5.782,4.456],[5.77,4.471],[5.798,4.457],[5.79,4.47],[5.75,4.484],[5.595,4.636],[5.567,4.675],[5.557,4.718],[5.572,4.711],[5.571,4.73],[5.528,4.756],[5.475,4.847],[5.51,4.827],[5.469,4.887],[5.386,5.126],[5.403,5.142],[5.434,5.136],[5.475,5.095],[5.454,5.149],[5.496,5.142],[5.451,5.19],[5.444,5.163],[5.366,5.163],[5.34,5.344],[5.346,5.357],[5.454,5.369],[5.468,5.341],[5.53,5.386],[5.578,5.382],[5.537,5.43],[5.534,5.476],[5.554,5.497],[5.614,5.505],[5.64,5.54],[5.596,5.514],[5.517,5.499],[5.485,5.412],[5.424,5.437],[5.434,5.396],[5.376,5.399],[5.263,5.437],[5.198,5.501],[5.191,5.554],[5.223,5.581],[5.393,5.561],[5.44,5.628],[5.482,5.615],[5.493,5.581],[5.51,5.591],[5.502,5.617],[5.447,5.656],[5.428,5.656],[5.38,5.598],[5.326,5.605],[5.318,5.637],[5.338,5.725],[5.28,5.617],[5.18,5.583],[5.129,5.628],[5.089,5.709],[5.103,5.793],[5.115,5.801],[5.154,5.779],[5.154,5.815],[5.185,5.842],[5.267,5.872],[5.29,5.91],[5.12,5.824],[5.045,5.767],[5.007,5.849],[4.886,6.007],[4.826,6.043],[4.748,6.139],[4.547,6.289],[4.406,6.359],[4.126,6.41],[3.87,6.432],[3.421,6.414],[3.385,6.445],[3.394,6.449],[3.428,6.459],[3.44,6.423],[3.475,6.456],[3.541,6.455],[3.571,6.479],[3.571,6.509],[3.7,6.527],[3.743,6.548],[3.762,6.585],[3.858,6.602],[3.844,6.611],[3.774,6.622],[3.664,6.57],[3.515,6.527],[3.479,6.541],[3.481,6.602],[3.43,6.558],[3.402,6.552],[3.406,6.513],[3.37,6.45],[3.389,6.42],[3.385,6.398],[3.082,6.381],[2.928,6.389],[2.704,6.368],[2.715,6.494],[2.737,6.558],[2.731,6.642],[2.779,6.699],[2.773,6.755],[2.736,6.77],[2.724,6.8],[2.737,6.863],[2.715,6.98],[2.78,7.041],[2.735,7.096],[2.762,7.162],[2.741,7.408],[2.751,7.424],[2.787,7.421],[2.792,7.478],[2.721,7.587],[2.727,7.793],[2.671,7.898],[2.687,7.934],[2.708,8.138],[2.734,8.19],[2.697,8.321],[2.704,8.418],[2.745,8.498],[2.723,8.783],[2.751,8.803],[2.763,8.896],[2.748,8.915],[2.77,8.967],[2.769,9.057],[2.846,9.051],[2.888,9.075],[2.93,9.078],[2.983,9.061],[3.076,9.095],[3.151,9.289],[3.133,9.457],[3.244,9.584],[3.246,9.634],[3.299,9.634],[3.332,9.652],[3.339,9.678],[3.315,9.759],[3.326,9.802],[3.453,9.853],[3.513,9.847],[3.589,9.949],[3.606,10.054],[3.655,10.101],[3.668,10.147],[3.588,10.244],[3.572,10.286],[3.652,10.436],[3.693,10.438],[3.773,10.408],[3.837,10.6],[3.823,10.703],[3.783,10.717],[3.73,10.808],[3.754,10.907],[3.712,11.052],[3.722,11.112],[3.663,11.143],[3.468,11.419],[3.505,11.557],[3.596,11.696]]],[[[7.541,4.484],[7.584,4.485],[7.57,4.459],[7.449,4.437],[7.358,4.439],[7.337,4.46],[7.346,4.478],[7.405,4.498],[7.47,4.471],[7.541,4.484]]],[[[7.274,4.492],[7.333,4.492],[7.298,4.415],[7.182,4.382],[7.138,4.397],[7.23,4.533],[7.274,4.492]]]]}},{"type":"Feature","properties":{"name":"Ghana","blocKey":"ecowas","blocLabel":"ECOWAS","color":"#7d8a3c","certainty":"member","basis":"ECOWAS member"},"geometry":{"type":"Polygon","coordinates":[[[-0.166,11.135],[-0.122,11.092],[-0.032,11.099],[0.016,11.063],[0.014,10.984],[-0.014,10.954],[-0.032,10.813],[-0.083,10.756],[-0.098,10.675],[-0.088,10.633],[0.029,10.583],[0.057,10.541],[0.126,10.492],[0.18,10.394],[0.197,10.41],[0.273,10.407],[0.279,10.367],[0.318,10.317],[0.309,10.297],[0.367,10.304],[0.397,10.283],[0.372,10.265],[0.357,10.22],[0.354,10.116],[0.398,10.052],[0.394,10.032],[0.35,10.029],[0.37,9.939],[0.342,9.904],[0.344,9.838],[0.322,9.761],[0.347,9.663],[0.319,9.649],[0.275,9.686],[0.261,9.657],[0.278,9.607],[0.349,9.614],[0.369,9.61],[0.378,9.589],[0.355,9.571],[0.322,9.583],[0.305,9.572],[0.23,9.576],[0.226,9.532],[0.302,9.507],[0.285,9.488],[0.228,9.474],[0.227,9.432],[0.231,9.419],[0.268,9.421],[0.322,9.443],[0.334,9.479],[0.412,9.492],[0.484,9.47],[0.483,9.428],[0.531,9.401],[0.527,9.298],[0.493,9.259],[0.505,9.187],[0.464,9.137],[0.431,9.028],[0.506,8.866],[0.473,8.794],[0.42,8.791],[0.408,8.759],[0.385,8.786],[0.366,8.774],[0.374,8.725],[0.444,8.607],[0.551,8.519],[0.616,8.489],[0.647,8.414],[0.685,8.383],[0.689,8.331],[0.709,8.323],[0.713,8.298],[0.574,8.204],[0.593,8.151],[0.575,8.125],[0.612,7.699],[0.583,7.704],[0.562,7.612],[0.509,7.585],[0.496,7.504],[0.517,7.411],[0.566,7.381],[0.623,7.398],[0.646,7.324],[0.598,7.159],[0.598,7.031],[0.579,6.997],[0.495,6.973],[0.546,6.915],[0.516,6.842],[0.577,6.755],[0.626,6.728],[0.632,6.624],[0.668,6.586],[0.727,6.571],[0.712,6.513],[0.746,6.441],[0.841,6.379],[0.887,6.33],[0.984,6.325],[1.025,6.222],[1.093,6.161],[1.176,6.152],[1.185,6.1],[1.099,6.047],[1.048,5.993],[1.012,5.926],[0.995,5.839],[0.955,5.791],[0.723,5.755],[0.365,5.781],[0.243,5.756],[0.157,5.725],[0.076,5.678],[0.035,5.628],[-0.069,5.581],[-0.372,5.493],[-0.472,5.391],[-0.629,5.327],[-0.638,5.341],[-0.8,5.215],[-0.874,5.204],[-0.911,5.218],[-0.977,5.198],[-0.997,5.217],[-1.154,5.154],[-1.234,5.101],[-1.319,5.095],[-1.569,5.019],[-1.618,5.022],[-1.634,4.974],[-1.719,4.928],[-1.749,4.877],[-1.912,4.821],[-1.981,4.752],[-2.097,4.738],[-2.108,4.776],[-2.155,4.786],[-2.237,4.849],[-2.253,4.879],[-2.357,4.92],[-2.526,4.954],[-2.69,5.01],[-2.965,5.045],[-3.12,5.091],[-3.099,5.113],[-3.016,5.114],[-2.958,5.083],[-2.926,5.095],[-2.929,5.122],[-2.901,5.134],[-2.767,5.161],[-2.757,5.18],[-2.779,5.201],[-2.775,5.24],[-2.796,5.285],[-2.79,5.347],[-2.743,5.343],[-2.73,5.373],[-2.793,5.608],[-2.877,5.637],[-2.946,5.608],[-2.97,5.621],[-2.975,5.647],[-2.965,5.71],[-3.03,5.704],[-3.023,5.855],[-3.088,5.997],[-3.139,6.219],[-3.184,6.264],[-3.263,6.617],[-3.21,6.716],[-3.243,6.775],[-3.242,6.811],[-3.11,7.046],[-3.046,7.071],[-3.028,7.138],[-2.973,7.215],[-2.99,7.271],[-2.942,7.577],[-2.838,7.797],[-2.84,7.82],[-2.801,7.85],[-2.791,7.943],[-2.771,7.931],[-2.691,8.01],[-2.611,8.04],[-2.6,8.07],[-2.622,8.136],[-2.611,8.165],[-2.558,8.168],[-2.506,8.209],[-2.598,8.769],[-2.617,8.789],[-2.596,8.828],[-2.619,8.924],[-2.638,8.931],[-2.661,9.015],[-2.775,9.055],[-2.755,9.143],[-2.705,9.218],[-2.673,9.235],[-2.66,9.273],[-2.715,9.311],[-2.672,9.374],[-2.676,9.472],[-2.766,9.577],[-2.762,9.625],[-2.74,9.651],[-2.795,9.72],[-2.775,9.774],[-2.734,9.823],[-2.761,9.871],[-2.754,9.967],[-2.788,10.039],[-2.799,10.17],[-2.755,10.261],[-2.833,10.306],[-2.841,10.343],[-2.822,10.388],[-2.768,10.421],[-2.812,10.429],[-2.86,10.466],[-2.933,10.634],[-2.905,10.693],[-2.922,10.721],[-2.864,10.864],[-2.821,10.906],[-2.837,10.998],[-2.751,10.996],[-2.751,10.986],[-1.599,10.997],[-1.562,11.027],[-1.436,11.023],[-1.355,10.997],[-1.108,10.994],[-1.07,11.014],[-0.932,11.003],[-0.894,10.98],[-0.901,10.966],[-0.828,11.006],[-0.674,10.984],[-0.683,10.954],[-0.635,10.908],[-0.591,10.982],[-0.513,10.99],[-0.457,11.03],[-0.425,11.101],[-0.406,11.101],[-0.369,11.065],[-0.319,11.101],[-0.298,11.128],[-0.302,11.163],[-0.166,11.135]]]}},{"type":"Feature","properties":{"name":"Senegal","blocKey":"ecowas","blocLabel":"ECOWAS","color":"#7d8a3c","certainty":"member","basis":"ECOWAS member"},"geometry":{"type":"Polygon","coordinates":[[[-12.264,14.775],[-12.223,14.703],[-12.18,14.693],[-12.19,14.656],[-12.165,14.642],[-12.204,14.554],[-12.236,14.519],[-12.222,14.391],[-12.116,14.355],[-12.12,14.311],[-12.044,14.265],[-11.998,14.166],[-12.025,13.985],[-11.963,13.909],[-11.963,13.829],[-11.979,13.785],[-12.012,13.751],[-12.098,13.704],[-12.015,13.564],[-11.89,13.465],[-11.898,13.371],[-11.855,13.351],[-11.828,13.307],[-11.775,13.343],[-11.767,13.383],[-11.741,13.408],[-11.704,13.38],[-11.65,13.384],[-11.644,13.356],[-11.613,13.361],[-11.606,13.32],[-11.554,13.257],[-11.572,13.217],[-11.539,13.163],[-11.533,13.112],[-11.45,13.075],[-11.459,13.055],[-11.423,13.009],[-11.439,12.959],[-11.412,12.961],[-11.402,12.989],[-11.389,12.971],[-11.388,12.927],[-11.427,12.919],[-11.415,12.897],[-11.433,12.836],[-11.408,12.804],[-11.402,12.732],[-11.437,12.712],[-11.462,12.673],[-11.437,12.637],[-11.437,12.571],[-11.468,12.544],[-11.43,12.508],[-11.417,12.529],[-11.401,12.48],[-11.39,12.498],[-11.378,12.48],[-11.388,12.404],[-11.515,12.432],[-11.643,12.418],[-11.758,12.383],[-11.84,12.387],[-11.924,12.419],[-11.998,12.386],[-12.104,12.407],[-12.192,12.349],[-12.361,12.306],[-12.406,12.356],[-12.467,12.384],[-12.505,12.39],[-12.594,12.362],[-12.648,12.426],[-12.773,12.435],[-12.783,12.453],[-12.839,12.466],[-12.849,12.495],[-12.913,12.536],[-12.949,12.536],[-12.981,12.467],[-13.052,12.472],[-13.083,12.516],[-13.059,12.603],[-13.076,12.636],[-13.202,12.633],[-13.284,12.653],[-13.339,12.639],[-13.405,12.662],[-13.728,12.673],[-15.195,12.679],[-15.25,12.664],[-15.425,12.555],[-15.677,12.439],[-15.973,12.437],[-16.091,12.464],[-16.182,12.443],[-16.222,12.455],[-16.412,12.362],[-16.533,12.348],[-16.669,12.357],[-16.728,12.333],[-16.744,12.379],[-16.799,12.431],[-16.801,12.494],[-16.732,12.552],[-16.679,12.55],[-16.645,12.571],[-16.58,12.633],[-16.533,12.565],[-16.522,12.593],[-16.505,12.598],[-16.371,12.55],[-16.31,12.598],[-16.247,12.588],[-16.212,12.606],[-16.193,12.578],[-16.03,12.633],[-15.99,12.623],[-15.94,12.581],[-15.864,12.578],[-15.84,12.557],[-15.769,12.593],[-15.73,12.591],[-15.645,12.537],[-15.588,12.558],[-15.51,12.636],[-15.53,12.666],[-15.535,12.783],[-15.466,12.796],[-15.446,12.825],[-15.407,12.8],[-15.392,12.838],[-15.407,12.822],[-15.453,12.831],[-15.549,12.794],[-15.542,12.649],[-15.641,12.559],[-15.672,12.571],[-15.666,12.601],[-15.768,12.625],[-15.833,12.591],[-15.86,12.612],[-15.913,12.601],[-15.953,12.625],[-15.953,12.644],[-15.981,12.653],[-16.022,12.729],[-16.049,12.656],[-16.077,12.639],[-16.155,12.612],[-16.324,12.61],[-16.371,12.565],[-16.49,12.632],[-16.493,12.649],[-16.467,12.674],[-16.492,12.682],[-16.501,12.708],[-16.508,12.625],[-16.57,12.694],[-16.599,12.664],[-16.635,12.669],[-16.638,12.694],[-16.591,12.762],[-16.597,12.797],[-16.604,12.763],[-16.651,12.705],[-16.647,12.632],[-16.755,12.572],[-16.781,12.609],[-16.777,12.678],[-16.735,12.733],[-16.701,12.722],[-16.699,12.736],[-16.734,12.751],[-16.796,12.715],[-16.796,12.749],[-16.77,12.793],[-16.775,12.811],[-16.794,12.795],[-16.803,12.814],[-16.755,12.903],[-16.752,13.088],[-16.708,13.157],[-15.833,13.157],[-15.819,13.334],[-15.692,13.36],[-15.596,13.356],[-15.52,13.387],[-15.379,13.363],[-15.277,13.38],[-15.228,13.425],[-15.204,13.537],[-15.138,13.59],[-14.95,13.463],[-14.79,13.417],[-14.732,13.359],[-14.662,13.341],[-14.592,13.353],[-14.53,13.307],[-14.47,13.298],[-14.431,13.261],[-14.369,13.236],[-14.202,13.23],[-14.117,13.282],[-13.901,13.315],[-13.851,13.336],[-13.823,13.378],[-13.819,13.429],[-13.901,13.542],[-13.988,13.579],[-14.366,13.455],[-14.47,13.522],[-14.51,13.609],[-14.543,13.641],[-14.627,13.664],[-14.741,13.615],[-14.803,13.652],[-14.831,13.736],[-14.879,13.781],[-15.017,13.797],[-15.076,13.819],[-15.171,13.794],[-15.267,13.742],[-15.304,13.782],[-15.348,13.789],[-15.394,13.772],[-15.468,13.708],[-15.497,13.648],[-15.502,13.588],[-15.518,13.583],[-16.561,13.587],[-16.576,13.64],[-16.508,13.688],[-16.529,13.701],[-16.509,13.74],[-16.529,13.743],[-16.542,13.694],[-16.599,13.654],[-16.636,13.678],[-16.63,13.76],[-16.576,13.839],[-16.549,13.825],[-16.557,13.846],[-16.522,13.852],[-16.513,13.813],[-16.487,13.805],[-16.501,13.873],[-16.516,13.88],[-16.487,14.003],[-16.549,13.869],[-16.638,13.846],[-16.7,13.769],[-16.742,13.839],[-16.747,13.951],[-16.703,13.99],[-16.646,13.983],[-16.638,13.962],[-16.599,13.997],[-16.576,13.989],[-16.577,14.011],[-16.542,14.037],[-16.568,14.03],[-16.591,14.044],[-16.441,14.157],[-16.405,14.145],[-16.365,14.168],[-16.428,14.17],[-16.455,14.18],[-16.453,14.202],[-16.469,14.194],[-16.46,14.154],[-16.513,14.151],[-16.557,14.072],[-16.6,14.054],[-16.632,14.01],[-16.654,14.003],[-16.721,14.016],[-16.697,14.065],[-16.652,14.1],[-16.679,14.076],[-16.728,14.065],[-16.717,14.042],[-16.769,13.962],[-16.775,13.839],[-16.786,14.06],[-16.821,14.143],[-16.879,14.175],[-16.899,14.26],[-16.945,14.301],[-16.94,14.356],[-16.957,14.39],[-17.07,14.465],[-17.138,14.599],[-17.224,14.69],[-17.331,14.736],[-17.417,14.738],[-17.44,14.722],[-17.419,14.709],[-17.44,14.688],[-17.427,14.675],[-17.44,14.654],[-17.536,14.757],[-17.371,14.8],[-17.322,14.839],[-17.173,14.901],[-16.878,15.233],[-16.534,15.784],[-16.542,15.809],[-16.51,15.902],[-16.508,16.01],[-16.47,16.106],[-16.466,16.174],[-16.444,16.206],[-16.385,16.235],[-16.335,16.456],[-16.295,16.511],[-16.251,16.528],[-16.195,16.523],[-16.132,16.555],[-16.054,16.495],[-15.958,16.498],[-15.897,16.518],[-15.672,16.481],[-15.61,16.521],[-15.525,16.522],[-15.464,16.581],[-15.415,16.548],[-15.328,16.572],[-15.232,16.566],[-15.125,16.583],[-15.093,16.6],[-15.118,16.643],[-15.108,16.665],[-15.079,16.665],[-15.037,16.633],[-15.007,16.676],[-14.974,16.691],[-14.912,16.641],[-14.656,16.646],[-14.608,16.629],[-14.555,16.641],[-14.493,16.632],[-14.407,16.661],[-14.336,16.632],[-14.335,16.586],[-14.278,16.581],[-14.268,16.548],[-14.214,16.535],[-14.073,16.401],[-13.978,16.338],[-13.964,16.23],[-13.884,16.194],[-13.836,16.121],[-13.795,16.131],[-13.729,16.19],[-13.711,16.189],[-13.72,16.136],[-13.669,16.106],[-13.485,16.155],[-13.502,16.095],[-13.44,16.102],[-13.389,16.052],[-13.37,15.985],[-13.316,15.93],[-13.316,15.882],[-13.28,15.823],[-13.286,15.77],[-13.228,15.711],[-13.249,15.657],[-13.238,15.623],[-13.178,15.628],[-13.11,15.596],[-13.092,15.575],[-13.084,15.493],[-13.039,15.487],[-12.996,15.514],[-12.964,15.509],[-12.919,15.365],[-12.828,15.284],[-12.833,15.27],[-12.884,15.271],[-12.888,15.251],[-12.857,15.222],[-12.787,15.214],[-12.78,15.146],[-12.717,15.103],[-12.69,15.092],[-12.623,15.102],[-12.485,15.017],[-12.448,14.907],[-12.382,14.846],[-12.264,14.775]]]}},{"type":"Feature","properties":{"name":"Mali","blocKey":"aes","blocLabel":"Sahel Alliance (AES)","color":"#b26a3d","certainty":"member","basis":"Alliance of Sahel States"},"geometry":{"type":"Polygon","coordinates":[[[-12.264,14.775],[-12.225,14.763],[-12.139,14.785],[-12.07,14.734],[-12.05,14.767],[-11.991,14.768],[-11.936,14.824],[-11.877,14.842],[-11.82,14.9],[-11.831,14.926],[-11.814,15.029],[-11.833,15.049],[-11.861,15.049],[-11.846,15.179],[-11.768,15.437],[-11.729,15.496],[-11.727,15.541],[-11.644,15.526],[-11.615,15.541],[-11.515,15.61],[-11.524,15.643],[-11.458,15.633],[-11.41,15.602],[-11.298,15.451],[-11.045,15.27],[-10.915,15.103],[-10.827,15.288],[-10.747,15.341],[-10.725,15.433],[-10.323,15.437],[-10.223,15.402],[-10.188,15.405],[-10.108,15.366],[-10.068,15.365],[-9.951,15.381],[-9.836,15.371],[-9.672,15.431],[-9.424,15.441],[-9.452,15.588],[-9.356,15.698],[-9.332,15.688],[-9.329,15.655],[-9.349,15.496],[-5.511,15.494],[-5.353,16.312],[-5.365,16.335],[-5.606,16.496],[-5.623,16.528],[-5.949,19.496],[-6.593,24.994],[-4.822,24.995],[1.147,21.102],[1.18,20.995],[1.145,20.796],[1.155,20.739],[1.297,20.733],[1.364,20.658],[1.56,20.598],[1.644,20.523],[1.659,20.398],[1.778,20.304],[1.855,20.295],[1.891,20.232],[1.955,20.255],[2.071,20.213],[2.161,20.275],[2.201,20.274],[2.316,20.18],[2.4,20.057],[2.515,20.016],[2.946,19.942],[3.199,19.821],[3.217,19.794],[3.199,19.554],[3.232,19.495],[3.226,19.46],[3.261,19.388],[3.251,19.365],[3.193,19.326],[3.174,19.252],[3.139,19.222],[3.104,19.136],[3.139,19.096],[3.226,19.051],[3.285,18.996],[3.359,18.977],[4.229,19.142],[4.236,16.996],[4.198,16.965],[4.202,16.849],[4.182,16.81],[4.184,16.416],[4.176,16.393],[4.095,16.341],[4.061,16.298],[3.971,16.086],[3.983,15.984],[3.91,15.905],[3.871,15.715],[3.808,15.666],[3.692,15.631],[3.614,15.548],[3.527,15.496],[3.507,15.354],[3.034,15.426],[3.01,15.418],[3,15.339],[1.332,15.284],[1.271,15.26],[0.974,14.991],[0.922,14.974],[0.769,14.969],[0.67,14.94],[0.515,14.994],[0.353,14.963],[0.221,14.996],[0.218,14.911],[-0.237,15.066],[-0.426,15.003],[-0.468,15.08],[-0.72,15.078],[-0.783,15.048],[-1.079,14.796],[-1.35,14.715],[-1.697,14.496],[-1.837,14.48],[-1.967,14.484],[-1.997,14.471],[-2.023,14.199],[-2.036,14.181],[-2.104,14.151],[-2.152,14.156],[-2.386,14.265],[-2.462,14.281],[-2.597,14.222],[-2.693,14.123],[-2.841,14.043],[-2.867,14.001],[-2.855,13.996],[-2.894,13.867],[-2.928,13.8],[-2.895,13.652],[-2.972,13.624],[-3.019,13.638],[-3.068,13.607],[-3.082,13.646],[-3.125,13.677],[-3.196,13.675],[-3.267,13.717],[-3.287,13.698],[-3.26,13.658],[-3.284,13.542],[-3.249,13.293],[-3.449,13.266],[-3.449,13.169],[-3.545,13.174],[-3.799,13.347],[-3.893,13.379],[-3.972,13.387],[-3.984,13.396],[-3.918,13.451],[-3.956,13.462],[-3.981,13.499],[-3.998,13.481],[-3.972,13.47],[-3.977,13.461],[-4.088,13.398],[-4.166,13.278],[-4.206,13.273],[-4.254,13.229],[-4.258,13.214],[-4.23,13.193],[-4.235,13.176],[-4.327,13.169],[-4.351,13.118],[-4.29,13.013],[-4.229,12.949],[-4.212,12.819],[-4.234,12.742],[-4.258,12.721],[-4.297,12.712],[-4.369,12.739],[-4.485,12.715],[-4.483,12.646],[-4.422,12.597],[-4.387,12.534],[-4.452,12.435],[-4.406,12.307],[-4.436,12.302],[-4.462,12.328],[-4.488,12.321],[-4.494,12.273],[-4.586,12.197],[-4.56,12.149],[-4.636,12.118],[-4.654,12.069],[-4.715,12.059],[-4.761,12.007],[-4.954,12.005],[-5.005,11.981],[-5.089,11.979],[-5.168,11.944],[-5.275,11.837],[-5.307,11.846],[-5.37,11.82],[-5.412,11.829],[-5.371,11.791],[-5.334,11.791],[-5.287,11.759],[-5.281,11.699],[-5.308,11.618],[-5.234,11.576],[-5.218,11.422],[-5.263,11.39],[-5.263,11.252],[-5.307,11.199],[-5.333,11.122],[-5.39,11.095],[-5.504,11.073],[-5.502,10.97],[-5.479,10.976],[-5.431,10.845],[-5.483,10.684],[-5.476,10.65],[-5.461,10.645],[-5.477,10.62],[-5.468,10.588],[-5.482,10.535],[-5.509,10.491],[-5.523,10.425],[-5.594,10.454],[-5.806,10.413],[-5.878,10.376],[-5.905,10.348],[-5.905,10.275],[-5.916,10.267],[-5.963,10.283],[-6.016,10.19],[-6.105,10.189],[-6.24,10.252],[-6.241,10.303],[-6.228,10.316],[-6.206,10.311],[-6.208,10.332],[-6.184,10.359],[-6.199,10.371],[-6.181,10.42],[-6.2,10.449],[-6.19,10.491],[-6.261,10.514],[-6.231,10.56],[-6.239,10.598],[-6.204,10.63],[-6.247,10.658],[-6.256,10.726],[-6.342,10.691],[-6.427,10.686],[-6.436,10.629],[-6.399,10.592],[-6.403,10.569],[-6.446,10.552],[-6.538,10.57],[-6.599,10.605],[-6.634,10.653],[-6.669,10.654],[-6.689,10.608],[-6.698,10.488],[-6.683,10.452],[-6.648,10.433],[-6.669,10.361],[-6.7,10.342],[-6.782,10.373],[-6.863,10.344],[-6.961,10.345],[-6.997,10.253],[-6.962,10.211],[-6.959,10.186],[-7.016,10.141],[-7.041,10.14],[-7.106,10.207],[-7.363,10.252],[-7.372,10.345],[-7.444,10.334],[-7.466,10.429],[-7.501,10.459],[-7.556,10.417],[-7.664,10.437],[-7.679,10.406],[-7.736,10.378],[-7.724,10.364],[-7.735,10.347],[-7.778,10.33],[-7.764,10.313],[-7.778,10.278],[-7.829,10.212],[-7.929,10.161],[-7.99,10.162],[-7.963,10.233],[-7.996,10.328],[-8.115,10.36],[-8.135,10.427],[-8.189,10.414],[-8.229,10.423],[-8.296,10.537],[-8.311,10.735],[-8.316,10.753],[-8.342,10.763],[-8.304,10.875],[-8.305,10.978],[-8.327,11.024],[-8.369,11.054],[-8.41,11.042],[-8.506,11.053],[-8.56,10.972],[-8.681,10.952],[-8.696,10.963],[-8.697,10.996],[-8.634,11.071],[-8.625,11.122],[-8.578,11.142],[-8.552,11.211],[-8.499,11.234],[-8.493,11.278],[-8.407,11.275],[-8.377,11.295],[-8.371,11.321],[-8.418,11.326],[-8.426,11.34],[-8.375,11.368],[-8.428,11.4],[-8.528,11.423],[-8.55,11.49],[-8.575,11.47],[-8.657,11.496],[-8.727,11.649],[-8.777,11.636],[-8.847,11.658],[-8.797,11.913],[-8.82,12.013],[-8.922,12.045],[-8.914,12.17],[-8.942,12.196],[-8.974,12.188],[-8.998,12.235],[-8.963,12.324],[-8.976,12.369],[-9.147,12.465],[-9.327,12.498],[-9.398,12.473],[-9.407,12.445],[-9.347,12.396],[-9.339,12.371],[-9.309,12.358],[-9.337,12.27],[-9.36,12.247],[-9.439,12.255],[-9.516,12.207],[-9.628,12.17],[-9.675,12.134],[-9.686,12.068],[-9.723,12.025],[-9.871,12.052],[-10.06,12.148],[-10.267,12.218],[-10.311,12.191],[-10.324,12.202],[-10.353,12.166],[-10.381,12.18],[-10.446,12.121],[-10.512,12.118],[-10.515,12.053],[-10.567,12.017],[-10.559,11.995],[-10.614,11.968],[-10.655,11.899],[-10.711,11.89],[-10.808,12.023],[-10.805,12.096],[-10.87,12.138],[-10.91,12.2],[-10.952,12.219],[-11.052,12.203],[-11.073,12.149],[-11.159,12.078],[-11.191,12.014],[-11.275,11.996],[-11.335,12.026],[-11.392,12.094],[-11.49,12.151],[-11.508,12.192],[-11.445,12.289],[-11.447,12.375],[-11.389,12.384],[-11.378,12.48],[-11.39,12.498],[-11.401,12.48],[-11.417,12.529],[-11.43,12.508],[-11.468,12.544],[-11.437,12.571],[-11.437,12.637],[-11.462,12.673],[-11.437,12.712],[-11.402,12.732],[-11.408,12.804],[-11.433,12.836],[-11.415,12.897],[-11.427,12.919],[-11.388,12.927],[-11.389,12.971],[-11.402,12.989],[-11.412,12.961],[-11.439,12.959],[-11.423,13.009],[-11.459,13.055],[-11.45,13.075],[-11.533,13.112],[-11.539,13.163],[-11.572,13.217],[-11.554,13.257],[-11.606,13.32],[-11.613,13.361],[-11.644,13.356],[-11.65,13.384],[-11.704,13.38],[-11.741,13.408],[-11.767,13.383],[-11.775,13.343],[-11.828,13.307],[-11.855,13.351],[-11.898,13.371],[-11.89,13.465],[-12.015,13.564],[-12.098,13.704],[-12.012,13.751],[-11.979,13.785],[-11.963,13.829],[-11.963,13.909],[-12.025,13.985],[-11.998,14.166],[-12.044,14.265],[-12.12,14.311],[-12.116,14.355],[-12.222,14.391],[-12.236,14.519],[-12.204,14.554],[-12.165,14.642],[-12.19,14.656],[-12.18,14.693],[-12.223,14.703],[-12.264,14.775]]]}},{"type":"Feature","properties":{"name":"Niger","blocKey":"aes","blocLabel":"Sahel Alliance (AES)","color":"#b26a3d","certainty":"member","basis":"Alliance of Sahel States"},"geometry":{"type":"Polygon","coordinates":[[[3.596,11.696],[3.495,11.838],[3.381,11.895],[3.342,11.883],[3.307,11.902],[3.27,11.957],[3.252,12.024],[3.063,12.194],[3.009,12.276],[2.945,12.292],[2.913,12.346],[2.844,12.399],[2.832,12.384],[2.769,12.38],[2.732,12.347],[2.7,12.347],[2.664,12.292],[2.586,12.294],[2.524,12.269],[2.495,12.283],[2.478,12.258],[2.46,12.267],[2.444,12.249],[2.37,12.236],[2.372,12.14],[2.406,12.047],[2.457,11.996],[2.457,11.979],[2.429,11.98],[2.407,11.951],[2.381,11.948],[2.39,11.897],[2.338,11.94],[2.052,12.342],[2.069,12.383],[2.145,12.412],[2.223,12.41],[2.245,12.424],[2.246,12.466],[2.211,12.523],[2.2,12.596],[2.109,12.706],[1.972,12.724],[1.934,12.694],[1.911,12.697],[1.844,12.606],[1.564,12.632],[1.114,12.996],[0.984,13.032],[0.972,13.067],[0.97,13.328],[0.984,13.368],[1.161,13.311],[1.188,13.364],[1.242,13.336],[1.269,13.346],[1.234,13.378],[1.157,13.393],[1.015,13.466],[0.991,13.541],[0.897,13.615],[0.776,13.635],[0.763,13.682],[0.594,13.689],[0.58,13.714],[0.601,13.769],[0.455,13.902],[0.457,13.947],[0.412,13.978],[0.402,14.014],[0.369,14.039],[0.378,14.07],[0.339,14.126],[0.389,14.252],[0.346,14.308],[0.189,14.448],[0.159,14.496],[0.153,14.547],[0.22,14.731],[0.184,14.82],[0.186,14.848],[0.221,14.888],[0.221,14.996],[0.353,14.963],[0.515,14.994],[0.67,14.94],[0.769,14.969],[0.949,14.98],[1.271,15.26],[1.332,15.284],[3,15.339],[3.01,15.418],[3.034,15.426],[3.507,15.354],[3.527,15.496],[3.614,15.548],[3.692,15.631],[3.846,15.685],[3.887,15.75],[3.91,15.905],[3.983,15.984],[3.971,16.086],[4.061,16.298],[4.095,16.341],[4.176,16.393],[4.184,16.416],[4.182,16.81],[4.202,16.849],[4.198,16.965],[4.236,16.996],[4.229,19.142],[5.794,19.45],[7.483,20.873],[11.969,23.517],[13.482,23.18],[13.6,23.119],[14.216,22.616],[14.98,22.996],[15.172,21.993],[15.185,21.491],[15.267,21.441],[15.301,21.401],[15.609,20.951],[15.569,20.929],[15.544,20.89],[15.544,20.799],[15.57,20.752],[15.669,20.672],[15.954,20.375],[15.97,20.336],[15.736,19.904],[15.472,16.917],[15.452,16.876],[14.369,15.75],[13.834,15.02],[13.755,14.847],[13.772,14.763],[13.764,14.719],[13.71,14.705],[13.645,14.644],[13.667,14.586],[13.658,14.549],[13.624,14.521],[13.544,14.511],[13.482,14.484],[13.449,14.439],[13.449,14.38],[13.607,13.704],[13.33,13.709],[13.259,13.629],[13.257,13.594],[13.23,13.578],[13.246,13.571],[13.228,13.548],[13.15,13.523],[13.144,13.551],[13.124,13.523],[13.124,13.537],[13.088,13.531],[13.082,13.551],[13.055,13.548],[12.939,13.495],[12.884,13.496],[12.871,13.479],[12.842,13.489],[12.87,13.461],[12.829,13.407],[12.795,13.396],[12.805,13.373],[12.777,13.387],[12.741,13.335],[12.69,13.312],[12.674,13.284],[12.63,13.31],[12.62,13.281],[12.561,13.243],[12.538,13.193],[12.554,13.188],[12.548,13.165],[12.5,13.136],[12.491,13.083],[12.473,13.064],[12.326,13.079],[12.301,13.098],[12.269,13.086],[12.263,13.102],[12.201,13.125],[12.116,13.103],[12.058,13.117],[11.853,13.245],[11.742,13.289],[11.44,13.364],[10.675,13.375],[10.12,13.25],[9.93,13.146],[9.892,13.076],[9.819,13.029],[9.641,12.823],[9.59,12.801],[9.378,12.826],[9.269,12.81],[8.943,12.847],[8.679,12.924],[8.643,12.944],[8.597,13.011],[8.534,13.065],[8.483,13.082],[8.405,13.071],[8.26,13.205],[8.201,13.226],[8.105,13.3],[7.824,13.345],[7.756,13.327],[7.392,13.113],[7.325,13.103],[7.198,13.117],[7.069,12.996],[6.937,12.995],[6.874,13.03],[6.779,13.13],[6.673,13.321],[6.509,13.496],[6.369,13.626],[6.302,13.664],[6.23,13.679],[6.142,13.641],[5.522,13.88],[5.374,13.855],[5.346,13.842],[5.304,13.774],[5.228,13.741],[5.084,13.748],[4.925,13.733],[4.857,13.774],[4.825,13.771],[4.453,13.674],[4.248,13.494],[4.126,13.473],[4.124,13.234],[4.089,12.996],[3.929,12.75],[3.642,12.518],[3.651,12.269],[3.624,12.094],[3.654,11.987],[3.604,11.906],[3.613,11.839],[3.667,11.76],[3.648,11.726],[3.596,11.696]]]}},{"type":"Feature","properties":{"name":"Burkina Faso","blocKey":"aes","blocLabel":"Sahel Alliance (AES)","color":"#b26a3d","certainty":"member","basis":"Alliance of Sahel States"},"geometry":{"type":"Polygon","coordinates":[[[2.39,11.897],[2.354,11.8],[2.302,11.732],[2.287,11.665],[2.147,11.564],[2.011,11.427],[1.948,11.417],[1.841,11.445],[1.782,11.426],[1.719,11.428],[1.602,11.389],[1.581,11.427],[1.563,11.426],[1.569,11.453],[1.44,11.474],[1.39,11.428],[1.398,11.399],[1.339,11.366],[1.33,11.347],[1.348,11.303],[1.33,11.289],[1.316,11.3],[1.302,11.289],[1.273,11.318],[1.283,11.279],[1.268,11.248],[1.219,11.268],[1.172,11.261],[1.156,11.286],[1.131,11.248],[1.158,11.166],[1.117,11.179],[1.1,11.152],[1.062,11.142],[1.097,11.104],[1.117,11.032],[1.087,11.053],[1.035,11.049],[0.981,11.08],[0.952,11.042],[0.969,11.003],[0.963,10.974],[0.901,10.993],[0.675,10.989],[0.488,10.933],[0.5,10.976],[0.484,10.98],[0.487,11.003],[-0.302,11.163],[-0.298,11.128],[-0.319,11.101],[-0.369,11.065],[-0.406,11.101],[-0.425,11.101],[-0.457,11.03],[-0.513,10.99],[-0.591,10.982],[-0.635,10.908],[-0.683,10.954],[-0.674,10.984],[-0.828,11.006],[-0.901,10.966],[-0.894,10.98],[-0.932,11.003],[-1.07,11.014],[-1.108,10.994],[-1.355,10.997],[-1.436,11.023],[-1.562,11.027],[-1.599,10.997],[-2.751,10.986],[-2.751,10.996],[-2.837,10.998],[-2.821,10.906],[-2.864,10.864],[-2.922,10.721],[-2.905,10.693],[-2.933,10.634],[-2.86,10.466],[-2.812,10.429],[-2.768,10.421],[-2.822,10.388],[-2.841,10.343],[-2.833,10.306],[-2.755,10.261],[-2.799,10.17],[-2.788,10.039],[-2.754,9.967],[-2.761,9.871],[-2.734,9.823],[-2.775,9.774],[-2.795,9.72],[-2.74,9.651],[-2.762,9.625],[-2.766,9.577],[-2.689,9.489],[-2.764,9.392],[-2.81,9.411],[-2.91,9.543],[-2.99,9.708],[-3.006,9.724],[-3.077,9.719],[-3.095,9.734],[-3.137,9.83],[-3.2,9.845],[-3.203,9.908],[-3.215,9.916],[-3.278,9.843],[-3.302,9.841],[-3.317,9.901],[-3.348,9.887],[-3.389,9.913],[-3.606,9.918],[-3.662,9.949],[-3.68,9.932],[-3.755,9.936],[-3.804,9.901],[-3.91,9.888],[-3.984,9.851],[-3.995,9.821],[-4.035,9.818],[-4.054,9.798],[-4.15,9.818],[-4.197,9.765],[-4.284,9.732],[-4.268,9.727],[-4.303,9.687],[-4.316,9.617],[-4.365,9.624],[-4.371,9.583],[-4.409,9.648],[-4.502,9.655],[-4.516,9.676],[-4.51,9.745],[-4.539,9.745],[-4.552,9.696],[-4.578,9.697],[-4.604,9.727],[-4.681,9.682],[-4.738,9.753],[-4.77,9.737],[-4.783,9.758],[-4.796,9.754],[-4.81,9.782],[-4.776,9.788],[-4.798,9.843],[-4.818,9.836],[-4.838,9.869],[-4.898,9.889],[-4.928,9.871],[-4.966,9.901],[-4.953,9.953],[-4.981,10.008],[-4.96,10.008],[-4.963,10.04],[-5.016,10.097],[-5.048,10.085],[-5.056,10.097],[-5.043,10.103],[-5.07,10.11],[-5.039,10.134],[-5.071,10.161],[-5.064,10.179],[-5.091,10.178],[-5.084,10.227],[-5.117,10.208],[-5.119,10.294],[-5.152,10.306],[-5.168,10.291],[-5.218,10.32],[-5.297,10.323],[-5.327,10.303],[-5.403,10.301],[-5.438,10.34],[-5.474,10.35],[-5.487,10.393],[-5.523,10.425],[-5.468,10.588],[-5.477,10.62],[-5.461,10.645],[-5.476,10.65],[-5.483,10.684],[-5.431,10.845],[-5.479,10.976],[-5.502,10.97],[-5.504,11.073],[-5.39,11.095],[-5.333,11.122],[-5.307,11.199],[-5.263,11.252],[-5.263,11.39],[-5.218,11.422],[-5.234,11.576],[-5.308,11.618],[-5.281,11.699],[-5.287,11.759],[-5.334,11.791],[-5.371,11.791],[-5.412,11.829],[-5.37,11.82],[-5.307,11.846],[-5.275,11.837],[-5.168,11.944],[-5.089,11.979],[-5.005,11.981],[-4.954,12.005],[-4.761,12.007],[-4.715,12.059],[-4.654,12.069],[-4.636,12.118],[-4.56,12.149],[-4.586,12.197],[-4.494,12.273],[-4.488,12.321],[-4.462,12.328],[-4.436,12.302],[-4.406,12.307],[-4.452,12.435],[-4.387,12.534],[-4.422,12.597],[-4.483,12.646],[-4.485,12.715],[-4.369,12.739],[-4.297,12.712],[-4.258,12.721],[-4.234,12.742],[-4.212,12.819],[-4.229,12.949],[-4.351,13.106],[-4.327,13.169],[-4.235,13.176],[-4.23,13.193],[-4.258,13.214],[-4.254,13.229],[-4.206,13.273],[-4.166,13.278],[-4.088,13.398],[-3.977,13.461],[-3.972,13.47],[-3.998,13.481],[-3.978,13.5],[-3.956,13.462],[-3.918,13.451],[-3.984,13.396],[-3.972,13.387],[-3.893,13.379],[-3.799,13.347],[-3.545,13.174],[-3.449,13.169],[-3.449,13.266],[-3.249,13.293],[-3.284,13.542],[-3.26,13.658],[-3.287,13.698],[-3.267,13.717],[-3.196,13.675],[-3.125,13.677],[-3.082,13.646],[-3.068,13.607],[-3.019,13.638],[-2.972,13.624],[-2.895,13.652],[-2.928,13.8],[-2.894,13.867],[-2.855,13.996],[-2.867,14.001],[-2.841,14.043],[-2.693,14.123],[-2.597,14.222],[-2.462,14.281],[-2.386,14.265],[-2.152,14.156],[-2.104,14.151],[-2.036,14.181],[-2.023,14.199],[-1.997,14.471],[-1.967,14.484],[-1.837,14.48],[-1.697,14.496],[-1.35,14.715],[-1.079,14.796],[-0.783,15.048],[-0.72,15.078],[-0.468,15.08],[-0.426,15.003],[-0.237,15.066],[0.218,14.911],[0.221,14.888],[0.186,14.848],[0.184,14.82],[0.22,14.731],[0.153,14.547],[0.159,14.496],[0.189,14.448],[0.346,14.308],[0.389,14.252],[0.339,14.126],[0.378,14.07],[0.369,14.039],[0.402,14.014],[0.412,13.978],[0.457,13.947],[0.455,13.902],[0.601,13.769],[0.58,13.714],[0.594,13.689],[0.763,13.682],[0.776,13.635],[0.897,13.615],[0.991,13.541],[1.015,13.466],[1.157,13.393],[1.234,13.378],[1.269,13.346],[1.242,13.336],[1.188,13.364],[1.161,13.311],[0.984,13.368],[0.97,13.328],[0.972,13.067],[0.984,13.032],[1.114,12.996],[1.564,12.632],[1.844,12.606],[1.911,12.697],[1.934,12.694],[1.972,12.724],[2.109,12.706],[2.2,12.596],[2.211,12.523],[2.246,12.466],[2.245,12.424],[2.223,12.41],[2.145,12.412],[2.069,12.383],[2.052,12.342],[2.338,11.94],[2.39,11.897]]]}}]}