{"type":"FeatureCollection","features":[{"type":"Feature","properties":{"name":"Norway"},"geometry":{"type":"MultiPolygon","coordinates":[[[[15.14,79.67],[15.52,80.02],[16.99,80.05],[18.25,79.7],[21.54,78.96],[19.03,78.56],[18.47,77.83],[17.59,77.64],[17.12,76.81],[15.91,76.77],[13.76,77.38],[14.67,77.74],[13.17,78.02],[11.22,78.87],[10.44,79.65],[13.17,80.01],[13.72,79.66],[15.14,79.67]]],[[[31.1,69.56],[29.4,69.16],[28.59,69.06],[29.02,69.77],[27.73,70.16],[26.18,69.83],[25.69,69.09],[24.74,68.65],[23.66,68.89],[22.36,68.84],[21.24,69.37],[20.65,69.11],[20.03,69.07],[19.88,68.41],[17.99,68.57],[17.73,68.01],[16.77,68.01],[16.11,67.3],[15.11,66.19],[13.56,64.79],[13.92,64.45],[13.57,64.05],[12.58,64.07],[11.93,63.13],[11.99,61.8],[12.63,61.29],[12.3,60.12],[11.47,59.43],[11.03,58.86],[10.36,59.47],[8.38,58.31],[7.05,58.08],[5.67,58.59],[5.31,59.66],[4.99,61.97],[5.91,62.61],[8.55,63.45],[10.53,64.49],[12.36,65.88],[14.76,67.81],[16.44,68.56],[19.18,69.82],[21.38,70.26],[23.02,70.2],[24.55,71.03],[26.37,70.99],[28.17,71.19],[31.29,70.45],[30.01,70.19],[31.1,69.56]]],[[[27.41,80.06],[25.92,79.52],[23.02,79.4],[20.08,79.57],[19.9,79.84],[18.46,79.86],[17.37,80.32],[20.46,80.6],[21.91,80.36],[22.92,80.66],[25.45,80.41],[27.41,80.06]]],[[[24.72,77.85],[22.49,77.44],[20.73,77.68],[21.42,77.94],[20.81,78.25],[22.88,78.45],[23.28,78.08],[24.72,77.85]]]]}},{"type":"Feature","properties":{"name":"France"},"geometry":{"type":"MultiPolygon","coordinates":[[[[-51.66,4.16],[-52.25,3.24],[-52.56,2.5],[-52.94,2.12],[-53.42,2.05],[-53.55,2.33],[-53.78,2.38],[-54.09,2.11],[-54.52,2.31],[-54.27,2.73],[-54.18,3.19],[-54.01,3.62],[-54.4,4.21],[-54.48,4.9],[-53.96,5.76],[-53.62,5.65],[-52.88,5.41],[-51.82,4.57],[-51.66,4.16]]],[[[6.19,49.46],[6.66,49.2],[8.1,49.02],[7.59,48.33],[7.47,47.62],[7.19,47.45],[6.74,47.54],[6.77,47.29],[6.04,46.73],[6.02,46.27],[6.5,46.43],[6.84,45.99],[6.8,45.71],[7.1,45.33],[6.75,45.03],[7.01,44.25],[7.55,44.13],[7.44,43.69],[6.53,43.13],[4.56,43.4],[3.1,43.08],[2.99,42.47],[1.83,42.34],[0.7,42.8],[0.34,42.58],[-1.5,43.03],[-1.9,43.42],[-1.38,44.02],[-1.19,46.01],[-2.23,47.06],[-2.96,47.57],[-4.49,47.95],[-4.59,48.68],[-3.3,48.9],[-1.62,48.64],[-1.93,49.78],[-0.99,49.35],[1.34,50.13],[1.64,50.95],[2.51,51.15],[2.66,50.8],[3.12,50.78],[3.59,50.38],[4.29,49.91],[4.8,49.99],[5.67,49.53],[5.9,49.44],[6.19,49.46]]],[[[8.75,42.63],[9.39,43.01],[9.56,42.15],[9.23,41.38],[8.78,41.58],[8.54,42.26],[8.75,42.63]]]]}},{"type":"Feature","properties":{"name":"Sweden"},"geometry":{"type":"Polygon","coordinates":[[[11.03,58.86],[11.47,59.43],[12.3,60.12],[12.63,61.29],[11.99,61.8],[11.93,63.13],[12.58,64.07],[13.57,64.05],[13.92,64.45],[13.56,64.79],[15.11,66.19],[16.11,67.3],[16.77,68.01],[17.73,68.01],[17.99,68.57],[19.88,68.41],[20.03,69.07],[20.65,69.11],[21.98,68.62],[23.54,67.94],[23.57,66.4],[23.9,66.01],[22.18,65.72],[21.21,65.03],[21.37,64.41],[19.78,63.61],[17.85,62.75],[17.12,61.34],[17.83,60.64],[18.79,60.08],[17.87,58.95],[16.83,58.72],[16.45,57.04],[15.88,56.1],[14.67,56.2],[14.1,55.41],[12.94,55.36],[12.63,56.31],[11.79,57.44],[11.03,58.86]]]}},{"type":"Feature","properties":{"name":"Poland"},"geometry":{"type":"Polygon","coordinates":[[[23.48,53.91],[23.53,53.47],[23.8,53.09],[23.8,52.69],[23.2,52.49],[23.51,52.02],[23.53,51.58],[24.03,50.71],[23.92,50.42],[23.43,50.31],[22.52,49.48],[22.78,49.03],[22.56,49.09],[21.61,49.47],[20.89,49.33],[20.42,49.43],[19.83,49.22],[19.32,49.57],[18.91,49.44],[18.85,49.5],[18.39,49.99],[17.65,50.05],[17.55,50.36],[16.87,50.47],[16.72,50.22],[16.18,50.42],[16.24,50.7],[15.49,50.78],[15.02,51.11],[14.61,51.75],[14.69,52.09],[14.44,52.62],[14.07,52.98],[14.35,53.25],[14.12,53.76],[14.8,54.05],[16.36,54.51],[17.62,54.85],[18.62,54.68],[18.7,54.44],[19.66,54.43],[20.89,54.31],[22.73,54.33],[23.24,54.22],[23.48,53.91]]]}},{"type":"Feature","properties":{"name":"Hungary"},"geometry":{"type":"Polygon","coordinates":[[[22.09,48.42],[22.64,48.15],[22.71,47.88],[22.1,47.67],[21.63,46.99],[21.02,46.32],[20.22,46.13],[19.6,46.17],[18.83,45.91],[18.83,45.91],[18.46,45.76],[17.63,45.95],[16.88,46.38],[16.56,46.5],[16.37,46.84],[16.2,46.85],[16.53,47.5],[16.34,47.71],[16.9,47.71],[16.98,48.12],[17.49,47.87],[17.86,47.76],[18.7,47.88],[18.78,48.08],[19.17,48.11],[19.66,48.27],[19.77,48.2],[20.24,48.33],[20.47,48.56],[20.8,48.62],[21.87,48.32],[22.09,48.42]]]}},{"type":"Feature","properties":{"name":"Romania"},"geometry":{"type":"Polygon","coordinates":[[[28.23,45.49],[28.68,45.3],[29.15,45.46],[29.6,45.29],[29.63,45.04],[29.14,44.82],[28.84,44.91],[28.56,43.71],[27.97,43.81],[27.24,44.18],[26.07,43.94],[25.57,43.69],[24.1,43.74],[23.33,43.9],[22.94,43.82],[22.66,44.23],[22.47,44.41],[22.71,44.58],[22.46,44.7],[22.15,44.48],[21.56,44.77],[21.48,45.18],[20.87,45.42],[20.76,45.73],[20.22,46.13],[21.02,46.32],[21.63,46.99],[22.1,47.67],[22.71,47.88],[23.14,48.1],[23.76,47.99],[24.4,47.98],[24.87,47.74],[25.21,47.89],[25.95,47.99],[26.2,48.22],[26.62,48.22],[26.92,48.12],[27.23,47.83],[27.55,47.41],[28.13,46.81],[28.16,46.37],[28.05,45.94],[28.23,45.49]]]}},{"type":"Feature","properties":{"name":"Lithuania"},"geometry":{"type":"Polygon","coordinates":[[[26.49,55.62],[26.59,55.17],[25.77,54.85],[25.54,54.28],[24.45,53.91],[23.48,53.91],[23.24,54.22],[22.73,54.33],[22.65,54.58],[22.76,54.86],[22.32,55.02],[21.27,55.19],[21.06,56.03],[22.2,56.34],[23.88,56.27],[24.86,56.37],[25,56.16],[25.53,56.1],[26.49,55.62]]]}},{"type":"Feature","properties":{"name":"Latvia"},"geometry":{"type":"Polygon","coordinates":[[[27.29,57.47],[27.77,57.24],[27.86,56.76],[28.18,56.17],[27.1,55.78],[26.49,55.62],[25.53,56.1],[25,56.16],[24.86,56.37],[23.88,56.27],[22.2,56.34],[21.06,56.03],[21.09,56.78],[21.58,57.41],[22.52,57.75],[23.32,57.01],[24.12,57.03],[24.31,57.79],[25.16,57.97],[25.6,57.85],[26.46,57.48],[27.29,57.47]]]}},{"type":"Feature","properties":{"name":"Estonia"},"geometry":{"type":"Polygon","coordinates":[[[27.98,59.48],[27.98,59.48],[28.13,59.3],[27.42,58.72],[27.72,57.79],[27.29,57.47],[26.46,57.48],[25.6,57.85],[25.16,57.97],[24.31,57.79],[24.43,58.38],[24.06,58.26],[23.43,58.61],[23.34,59.19],[24.6,59.47],[25.86,59.61],[26.95,59.45],[27.98,59.48],[27.98,59.48]]]}},{"type":"Feature","properties":{"name":"Germany"},"geometry":{"type":"Polygon","coordinates":[[[14.12,53.76],[14.35,53.25],[14.07,52.98],[14.44,52.62],[14.69,52.09],[14.61,51.75],[15.02,51.11],[14.57,51],[14.31,51.12],[14.06,50.93],[13.34,50.73],[12.97,50.48],[12.24,50.27],[12.42,49.97],[12.52,49.55],[13.03,49.31],[13.6,48.88],[13.24,48.42],[12.88,48.29],[13.03,47.64],[12.93,47.47],[12.62,47.67],[12.14,47.7],[11.43,47.52],[10.54,47.57],[10.4,47.3],[9.9,47.58],[9.59,47.53],[8.52,47.83],[8.32,47.61],[7.47,47.62],[7.59,48.33],[8.1,49.02],[6.66,49.2],[6.19,49.46],[6.24,49.9],[6.04,50.13],[6.16,50.8],[5.99,51.85],[6.59,51.85],[6.84,52.23],[7.09,53.14],[6.91,53.48],[7.1,53.69],[7.94,53.75],[8.12,53.53],[8.8,54.02],[8.57,54.4],[8.53,54.96],[9.28,54.83],[9.92,54.98],[9.94,54.6],[10.95,54.36],[10.94,54.01],[11.96,54.2],[12.52,54.47],[13.65,54.08],[14.12,53.76]]]}},{"type":"Feature","properties":{"name":"Bulgaria"},"geometry":{"type":"Polygon","coordinates":[[[22.66,44.23],[22.94,43.82],[23.33,43.9],[24.1,43.74],[25.57,43.69],[26.07,43.94],[27.24,44.18],[27.97,43.81],[28.56,43.71],[28.04,43.29],[27.67,42.58],[28,42.01],[27.14,42.14],[26.12,41.83],[26.11,41.33],[25.2,41.23],[24.49,41.58],[23.69,41.31],[22.95,41.34],[22.88,42],[22.38,42.32],[22.55,42.46],[22.44,42.58],[22.6,42.9],[22.99,43.21],[22.5,43.64],[22.41,44.01],[22.66,44.23]]]}},{"type":"Feature","properties":{"name":"Greece"},"geometry":{"type":"MultiPolygon","coordinates":[[[[26.29,35.3],[26.16,35],[24.72,34.92],[24.74,35.08],[23.51,35.28],[23.7,35.71],[24.25,35.37],[25.03,35.42],[25.77,35.35],[25.75,35.18],[26.29,35.3]]],[[[22.95,41.34],[23.69,41.31],[24.49,41.58],[25.2,41.23],[26.11,41.33],[26.12,41.83],[26.6,41.56],[26.29,40.94],[26.06,40.82],[25.45,40.85],[24.93,40.95],[23.71,40.69],[24.41,40.12],[23.9,39.96],[23.34,39.96],[22.81,40.48],[22.63,40.26],[22.85,39.66],[23.35,39.19],[22.97,38.97],[23.53,38.51],[24.03,38.22],[24.04,37.66],[23.12,37.92],[23.41,37.41],[22.77,37.31],[23.15,36.42],[22.49,36.41],[21.67,36.84],[21.3,37.64],[21.12,38.31],[20.73,38.77],[20.22,39.34],[20.15,39.62],[20.62,40.11],[20.67,40.44],[21,40.58],[21.02,40.84],[21.67,40.93],[22.06,41.15],[22.6,41.13],[22.76,41.3],[22.95,41.34]]]]}},{"type":"Feature","properties":{"name":"Turkey"},"geometry":{"type":"MultiPolygon","coordinates":[[[[44.77,37.17],[44.29,37],[43.94,37.26],[42.78,37.39],[42.35,37.23],[41.21,37.07],[40.67,37.09],[39.52,36.72],[38.7,36.71],[38.17,36.9],[37.07,36.62],[36.74,36.82],[36.69,36.26],[36.42,36.04],[36.15,35.82],[35.78,36.27],[36.16,36.65],[35.55,36.57],[34.71,36.8],[34.03,36.22],[32.51,36.11],[31.7,36.64],[30.62,36.68],[30.39,36.26],[29.7,36.14],[28.73,36.68],[27.64,36.66],[27.05,37.65],[26.32,38.21],[26.8,38.99],[26.17,39.46],[27.28,40.42],[28.82,40.46],[29.24,41.22],[31.15,41.09],[32.35,41.74],[33.51,42.02],[35.17,42.04],[36.91,41.34],[38.35,40.95],[39.51,41.1],[40.37,41.01],[41.55,41.54],[42.62,41.58],[43.58,41.09],[43.75,40.74],[43.66,40.25],[44.4,40.01],[44.79,39.71],[44.11,39.43],[44.42,38.28],[44.23,37.97],[44.77,37.17],[44.77,37.17]]],[[[26.12,41.83],[27.14,42.14],[28,42.01],[28.12,41.62],[28.99,41.3],[28.81,41.05],[27.62,41],[27.19,40.69],[26.36,40.15],[26.04,40.62],[26.06,40.82],[26.29,40.94],[26.6,41.56],[26.12,41.83]]]]}},{"type":"Feature","properties":{"name":"Albania"},"geometry":{"type":"Polygon","coordinates":[[[21.02,40.84],[21,40.58],[20.67,40.44],[20.62,40.11],[20.15,39.62],[19.98,39.69],[19.96,39.92],[19.41,40.25],[19.32,40.73],[19.4,41.41],[19.54,41.72],[19.37,41.88],[19.37,41.88],[19.3,42.2],[19.74,42.69],[19.8,42.5],[20.07,42.59],[20.28,42.32],[20.52,42.22],[20.59,41.86],[20.59,41.86],[20.46,41.52],[20.61,41.09],[21.02,40.84]]]}},{"type":"Feature","properties":{"name":"Croatia"},"geometry":{"type":"Polygon","coordinates":[[[16.56,46.5],[16.88,46.38],[17.63,45.95],[18.46,45.76],[18.83,45.91],[19.07,45.52],[19.39,45.24],[19.01,44.86],[18.55,45.08],[17.86,45.07],[17,45.23],[16.53,45.21],[16.32,45],[15.96,45.23],[15.75,44.82],[16.24,44.35],[16.46,44.04],[16.92,43.67],[17.3,43.45],[17.67,43.03],[18.56,42.65],[18.45,42.48],[18.45,42.48],[17.51,42.85],[16.93,43.21],[16.02,43.51],[15.17,44.24],[15.38,44.32],[14.92,44.74],[14.9,45.08],[14.26,45.23],[13.95,44.8],[13.66,45.14],[13.68,45.48],[13.72,45.5],[14.41,45.47],[14.6,45.63],[14.94,45.47],[15.33,45.45],[15.32,45.73],[15.67,45.83],[15.77,46.24],[16.56,46.5]]]}},{"type":"Feature","properties":{"name":"Luxembourg"},"geometry":{"type":"Polygon","coordinates":[[[6.04,50.13],[6.24,49.9],[6.19,49.46],[5.9,49.44],[5.67,49.53],[5.78,50.09],[6.04,50.13]]]}},{"type":"Feature","properties":{"name":"Belgium"},"geometry":{"type":"Polygon","coordinates":[[[6.16,50.8],[6.04,50.13],[5.78,50.09],[5.67,49.53],[4.8,49.99],[4.29,49.91],[3.59,50.38],[3.12,50.78],[2.66,50.8],[2.51,51.15],[3.31,51.35],[3.32,51.35],[3.31,51.35],[4.05,51.27],[4.97,51.48],[5.61,51.04],[6.16,50.8]]]}},{"type":"Feature","properties":{"name":"Netherlands"},"geometry":{"type":"Polygon","coordinates":[[[6.91,53.48],[7.09,53.14],[6.84,52.23],[6.59,51.85],[5.99,51.85],[6.16,50.8],[5.61,51.04],[4.97,51.48],[4.05,51.27],[3.31,51.35],[3.32,51.35],[3.83,51.62],[4.71,53.09],[6.07,53.51],[6.91,53.48]]]}},{"type":"Feature","properties":{"name":"Portugal"},"geometry":{"type":"Polygon","coordinates":[[[-9.03,41.88],[-8.67,42.13],[-8.26,42.28],[-8.01,41.79],[-7.42,41.79],[-7.25,41.92],[-6.67,41.88],[-6.39,41.38],[-6.85,41.11],[-6.86,40.33],[-7.03,40.18],[-7.07,39.71],[-7.5,39.63],[-7.1,39.03],[-7.37,38.37],[-7.03,38.08],[-7.17,37.8],[-7.54,37.43],[-7.45,37.1],[-7.86,36.84],[-8.38,36.98],[-8.9,36.87],[-8.75,37.65],[-8.84,38.27],[-9.29,38.36],[-9.53,38.74],[-9.45,39.39],[-9.05,39.76],[-8.98,40.16],[-8.77,40.76],[-8.79,41.18],[-8.99,41.54],[-9.03,41.88]]]}},{"type":"Feature","properties":{"name":"Spain"},"geometry":{"type":"Polygon","coordinates":[[[-7.45,37.1],[-7.54,37.43],[-7.17,37.8],[-7.03,38.08],[-7.37,38.37],[-7.1,39.03],[-7.5,39.63],[-7.07,39.71],[-7.03,40.18],[-6.86,40.33],[-6.85,41.11],[-6.39,41.38],[-6.67,41.88],[-7.25,41.92],[-7.42,41.79],[-8.01,41.79],[-8.26,42.28],[-8.67,42.13],[-9.03,41.88],[-8.98,42.59],[-9.39,43.03],[-7.98,43.75],[-6.75,43.57],[-5.41,43.57],[-4.35,43.4],[-3.52,43.46],[-1.9,43.42],[-1.5,43.03],[0.34,42.58],[0.7,42.8],[1.83,42.34],[2.99,42.47],[3.04,41.89],[2.09,41.23],[0.81,41.01],[0.72,40.68],[0.11,40.12],[-0.28,39.31],[0.11,38.74],[-0.47,38.29],[-0.68,37.64],[-1.44,37.44],[-2.15,36.67],[-3.42,36.66],[-4.37,36.68],[-5,36.32],[-5.38,35.95],[-5.87,36.03],[-6.24,36.37],[-6.52,36.94],[-7.45,37.1]]]}},{"type":"Feature","properties":{"name":"Italy"},"geometry":{"type":"MultiPolygon","coordinates":[[[[10.44,46.89],[11.05,46.75],[11.16,46.94],[12.15,47.12],[12.38,46.77],[13.81,46.51],[13.7,46.02],[13.94,45.59],[13.14,45.74],[12.33,45.38],[12.38,44.89],[12.26,44.6],[12.59,44.09],[13.53,43.59],[14.03,42.76],[15.14,41.96],[15.93,41.96],[16.17,41.74],[15.89,41.54],[16.79,41.18],[17.52,40.88],[18.38,40.36],[18.48,40.17],[18.29,39.81],[17.74,40.28],[16.87,40.44],[16.45,39.8],[17.17,39.42],[17.05,38.9],[16.64,38.84],[16.1,37.99],[15.68,37.91],[15.69,38.21],[15.89,38.75],[16.11,38.96],[15.72,39.54],[15.41,40.05],[15,40.17],[14.7,40.6],[14.06,40.79],[13.63,41.19],[12.89,41.25],[12.11,41.7],[11.19,42.36],[10.51,42.93],[10.2,43.92],[9.7,44.04],[8.89,44.37],[8.43,44.23],[7.85,43.77],[7.44,43.69],[7.55,44.13],[7.01,44.25],[6.75,45.03],[7.1,45.33],[6.8,45.71],[6.84,45.99],[7.27,45.78],[7.76,45.82],[8.32,46.16],[8.49,46.01],[8.97,46.04],[9.18,46.44],[9.92,46.31],[10.36,46.48],[10.44,46.89]]],[[[14.76,38.14],[15.52,38.23],[15.16,37.44],[15.31,37.13],[15.1,36.62],[14.34,37],[13.83,37.1],[12.43,37.61],[12.57,38.13],[13.74,38.03],[14.76,38.14]]],[[[8.71,40.9],[9.21,41.21],[9.81,40.5],[9.67,39.18],[9.21,39.24],[8.81,38.91],[8.43,39.17],[8.39,40.38],[8.16,40.95],[8.71,40.9]]]]}},{"type":"Feature","properties":{"name":"Denmark"},"geometry":{"type":"MultiPolygon","coordinates":[[[[9.92,54.98],[9.28,54.83],[8.53,54.96],[8.12,55.52],[8.09,56.54],[8.26,56.81],[8.54,57.11],[9.42,57.17],[9.78,57.45],[10.58,57.73],[10.55,57.22],[10.25,56.89],[10.37,56.61],[10.91,56.46],[10.67,56.08],[10.37,56.19],[9.65,55.47],[9.92,54.98]]],[[[12.37,56.11],[12.69,55.61],[12.09,54.8],[11.04,55.36],[10.9,55.78],[12.37,56.11]]]]}},{"type":"Feature","properties":{"name":"United Kingdom"},"geometry":{"type":"MultiPolygon","coordinates":[[[[-6.2,53.87],[-6.95,54.07],[-7.57,54.06],[-7.37,54.6],[-7.57,55.13],[-6.73,55.17],[-5.66,54.55],[-6.2,53.87]]],[[[-3.09,53.4],[-3.09,53.4],[-2.95,53.99],[-3.61,54.6],[-3.63,54.62],[-4.84,54.79],[-5.08,55.06],[-4.72,55.51],[-5.05,55.78],[-5.59,55.31],[-5.64,56.28],[-6.15,56.79],[-5.79,57.82],[-5.01,58.63],[-4.21,58.55],[-3.01,58.64],[-4.07,57.55],[-3.06,57.69],[-1.96,57.68],[-2.22,56.87],[-3.12,55.97],[-2.09,55.91],[-2.01,55.8],[-1.11,54.62],[-0.43,54.46],[0.18,53.33],[0.47,52.93],[1.68,52.74],[1.56,52.1],[1.05,51.81],[1.45,51.29],[0.55,50.77],[-0.79,50.77],[-2.49,50.5],[-2.96,50.7],[-3.62,50.23],[-4.54,50.34],[-5.25,49.96],[-5.78,50.16],[-4.31,51.21],[-3.41,51.43],[-3.42,51.43],[-4.98,51.59],[-5.27,51.99],[-4.22,52.3],[-4.77,52.84],[-4.58,53.5],[-3.09,53.4]]]]}},{"type":"Feature","properties":{"name":"Iceland"},"geometry":{"type":"Polygon","coordinates":[[[-14.51,66.46],[-14.74,65.81],[-13.61,65.13],[-14.91,64.36],[-17.79,63.68],[-18.66,63.5],[-19.97,63.64],[-22.76,63.96],[-21.78,64.4],[-23.96,64.89],[-22.18,65.08],[-22.23,65.38],[-24.33,65.61],[-23.65,66.26],[-22.13,66.41],[-20.58,65.73],[-19.06,66.28],[-17.8,65.99],[-16.17,66.53],[-14.51,66.46]]]}},{"type":"Feature","properties":{"name":"Slovenia"},"geometry":{"type":"Polygon","coordinates":[[[13.81,46.51],[14.63,46.43],[15.14,46.66],[16.01,46.68],[16.2,46.85],[16.37,46.84],[16.56,46.5],[15.77,46.24],[15.67,45.83],[15.32,45.73],[15.33,45.45],[14.94,45.47],[14.6,45.63],[14.41,45.47],[13.72,45.5],[13.94,45.59],[13.7,46.02],[13.81,46.51]]]}},{"type":"Feature","properties":{"name":"Finland"},"geometry":{"type":"Polygon","coordinates":[[[28.59,69.06],[28.45,68.36],[29.98,67.7],[29.05,66.94],[30.22,65.81],[29.54,64.95],[30.44,64.2],[30.04,63.55],[31.52,62.87],[31.14,62.36],[30.21,61.78],[28.07,60.5],[28.07,60.5],[28.07,60.5],[26.26,60.42],[24.5,60.06],[22.87,59.85],[22.29,60.39],[21.32,60.72],[21.54,61.71],[21.06,62.61],[21.54,63.19],[22.44,63.82],[24.73,64.9],[25.4,65.11],[25.29,65.53],[23.9,66.01],[23.57,66.4],[23.54,67.94],[21.98,68.62],[20.65,69.11],[21.24,69.37],[22.36,68.84],[23.66,68.89],[24.74,68.65],[25.69,69.09],[26.18,69.83],[27.73,70.16],[29.02,69.77],[28.59,69.06]]]}},{"type":"Feature","properties":{"name":"Slovakia"},"geometry":{"type":"Polygon","coordinates":[[[22.56,49.09],[22.28,48.83],[22.09,48.42],[21.87,48.32],[20.8,48.62],[20.47,48.56],[20.24,48.33],[19.77,48.2],[19.66,48.27],[19.17,48.11],[18.78,48.08],[18.7,47.88],[17.86,47.76],[17.49,47.87],[16.98,48.12],[16.88,48.47],[16.96,48.6],[17.1,48.82],[17.55,48.8],[17.89,48.9],[17.91,49],[18.1,49.04],[18.17,49.27],[18.4,49.32],[18.55,49.5],[18.85,49.5],[18.91,49.44],[19.32,49.57],[19.83,49.22],[20.42,49.43],[20.89,49.33],[21.61,49.47],[22.56,49.09]]]}},{"type":"Feature","properties":{"name":"Czechia"},"geometry":{"type":"Polygon","coordinates":[[[15.02,51.11],[15.49,50.78],[16.24,50.7],[16.18,50.42],[16.72,50.22],[16.87,50.47],[17.55,50.36],[17.65,50.05],[18.39,49.99],[18.85,49.5],[18.55,49.5],[18.4,49.32],[18.17,49.27],[18.1,49.04],[17.91,49],[17.89,48.9],[17.55,48.8],[17.1,48.82],[16.96,48.6],[16.5,48.79],[16.03,48.73],[15.25,49.04],[14.9,48.96],[14.34,48.56],[13.6,48.88],[13.03,49.31],[12.52,49.55],[12.42,49.97],[12.24,50.27],[12.97,50.48],[13.34,50.73],[14.06,50.93],[14.31,51.12],[14.57,51],[15.02,51.11]]]}},{"type":"Feature","properties":{"name":"North Macedonia"},"geometry":{"type":"Polygon","coordinates":[[[22.38,42.32],[22.88,42],[22.95,41.34],[22.76,41.3],[22.6,41.13],[22.06,41.15],[21.67,40.93],[21.02,40.84],[20.61,41.09],[20.46,41.52],[20.59,41.86],[20.59,41.86],[20.72,41.85],[20.76,42.05],[21.35,42.21],[21.58,42.25],[21.92,42.3],[22.38,42.32]]]}},{"type":"Feature","properties":{"name":"Montenegro"},"geometry":{"type":"Polygon","coordinates":[[[20.07,42.59],[19.8,42.5],[19.74,42.69],[19.3,42.2],[19.37,41.88],[19.16,41.96],[18.88,42.28],[18.45,42.48],[18.56,42.65],[18.71,43.2],[19.03,43.43],[19.22,43.52],[19.48,43.35],[19.63,43.21],[19.96,43.11],[20.34,42.9],[20.26,42.81],[20.07,42.59]]]}}]}